"ISO3","iata_code","airport_name","iso2c","airport_type","latitude_deg","longitude_deg","elevation_ft","pais","country_climate_risk_exposure","nearest_airport_iata"
"AIA","AXA","Clayton J Lloyd International Airport","AI","medium_airport",18.204773,-63.05383,127,"Anguilla",0.434583075941399,"SKB"
"ALB","TIA","Tirana International Airport Mother Teresa","AL","large_airport",41.4147,19.7206,126,"Albania",0.408243135147946,"TGD"
"ARE","DXB","Dubai International Airport","AE","large_airport",25.2527999878,55.3643989563,62,"United Arab Emirates",0.367262048656977,"SHJ"
"ARE","AUH","Zayed International Airport","AE","large_airport",24.443764,54.651718,88,"United Arab Emirates",0.367262048656977,"DWC"
"ARE","SHJ","Sharjah International Airport","AE","large_airport",25.3286,55.5172,111,"United Arab Emirates",0.367262048656977,"DXB"
"ARE","RKT","Ras Al Khaimah International Airport","AE","medium_airport",25.6135005950928,55.9388008117676,102,"United Arab Emirates",0.367262048656977,"SHJ"
"ARE","DWC","Al Maktoum International Airport","AE","large_airport",24.896356,55.161389,114,"United Arab Emirates",0.367262048656977,"DXB"
"ARG","PSS","Libertador Gral D Jose De San Martin Airport","AR","medium_airport",-27.3858,-55.9707,430,"Argentina",0.470457592651683,"IGR"
"ARG","SLA","Martin Miguel De Guemes International Airport","AR","medium_airport",-24.8560009003,-65.4861984253,4088,"Argentina",0.470457592651683,"JUJ"
"ARG","CPC","Aviador C. Campos Airport","AR","medium_airport",-40.075401,-71.137299,2569,"Argentina",0.470457592651683,"BRC"
"ARG","EZE","Minister Pistarini International Airport","AR","large_airport",-34.8222,-58.5358,67,"Argentina",0.470457592651683,"AEP"
"ARG","AEP","Jorge Newbery Airpark","AR","large_airport",-34.5592,-58.4156,18,"Argentina",0.470457592651683,"EZE"
"ARG","BRC","San Carlos de Bariloche Airport","AR","medium_airport",-41.151199,-71.157501,2774,"Argentina",0.470457592651683,"CPC"
"ARG","CTC","Coronel Felipe Varela International Airport","AR","medium_airport",-28.593117,-65.7512,1522,"Argentina",0.470457592651683,"IRJ"
"ARG","CNQ","Corrientes Airport","AR","medium_airport",-27.4455,-58.7619,202,"Argentina",0.470457592651683,"RES"
"ARG","MDZ","El Plumerillo Airport","AR","medium_airport",-32.8316993713,-68.7929000854,2310,"Argentina",0.470457592651683,"UAQ"
"ARG","IGR","Cataratas Del Iguazú International Airport","AR","medium_airport",-25.737301,-54.4734,916,"Argentina",0.470457592651683,"IGU"
"ARG","ROS","Rosario Islas Malvinas International Airport","AR","medium_airport",-32.9036,-60.785,85,"Argentina",0.470457592651683,"AEP"
"ARG","EQS","Esquel Brigadier Antonio Parodi International Airport","AR","medium_airport",-42.908001,-71.139503,2621,"Argentina",0.470457592651683,"BRC"
"ARG","COR","Ingeniero Ambrosio Taravella Airport","AR","medium_airport",-31.323601,-64.208,1604,"Argentina",0.470457592651683,"LUQ"
"ARG","JUJ","Gobernador Horacio Guzman International Airport","AR","medium_airport",-24.392799,-65.097801,3019,"Argentina",0.470457592651683,"SLA"
"ARG","CRD","General E. Mosconi Airport","AR","medium_airport",-45.7853,-67.4655,189,"Argentina",0.470457592651683,"BBA"
"ARG","RES","Resistencia International Airport","AR","medium_airport",-27.45,-59.0561,173,"Argentina",0.470457592651683,"CNQ"
"ARG","BHI","Comandante Espora Airport","AR","medium_airport",-38.725,-62.1693,246,"Argentina",0.470457592651683,"MDQ"
"ARG","MDQ","Ástor Piazzola International Airport","AR","medium_airport",-37.9342,-57.5733,72,"Argentina",0.470457592651683,"EZE"
"ARG","NQN","Presidente Peron Airport","AR","medium_airport",-38.949001,-68.155701,895,"Argentina",0.470457592651683,"CPC"
"ARG","SDE","Vicecomodoro Angel D. La Paz Aragonés Airport","AR","medium_airport",-27.7655563354,-64.3099975586,656,"Argentina",0.470457592651683,"TUC"
"ARG","RGL","Piloto Civil N. Fernández Airport","AR","medium_airport",-51.6089,-69.3126,61,"Argentina",0.470457592651683,"PUQ"
"ARG","LUQ","Brigadier Mayor D Cesar Raul Ojeda Airport","AR","medium_airport",-33.273201,-66.3564,2328,"Argentina",0.470457592651683,"MDZ"
"ARG","UAQ","Domingo Faustino Sarmiento Airport","AR","medium_airport",-31.571501,-68.418198,1958,"Argentina",0.470457592651683,"MDZ"
"ARG","IRJ","Capitan V A Almonacid Airport","AR","medium_airport",-29.381599,-66.795799,1437,"Argentina",0.470457592651683,"CTC"
"ARG","REL","Almirante Marco Andres Zar Airport","AR","medium_airport",-43.2105,-65.2703,141,"Argentina",0.470457592651683,"CRD"
"ARG","USH","Ushuaia - Malvinas Argentinas International Airport","AR","medium_airport",-54.8433,-68.2958,102,"Argentina",0.470457592651683,"RGA"
"ARG","TUC","Teniente Benjamin Matienzo Airport","AR","medium_airport",-26.8409,-65.104897,1493,"Argentina",0.470457592651683,"SDE"
"ARG","FTE","El Calafate - Commander Armando Tola International Airport","AR","medium_airport",-50.2803,-72.053101,669,"Argentina",0.470457592651683,"RGL"
"ARG","RGA","Gobernador Ramón Trejo Noel International Airport","AR","medium_airport",-53.7777,-67.7494,65,"Argentina",0.470457592651683,"USH"
"ARM","LWN","Shirak International Airport","AM","medium_airport",40.750401,43.859299,5000,"Armenia",0.337432497977301,"EVN"
"ARM","EVN","Zvartnots International Airport","AM","large_airport",40.1473007202,44.3959007263,2838,"Armenia",0.337432497977301,"LWN"
"ASM","PPG","Pago Pago International Airport","AS","medium_airport",-14.331,-170.710007,32,"American Samoa",0.486688943340768,"TAH"
"ATG","ANU","V C Bird International Airport","AG","medium_airport",17.1367,-61.792702,62,"Antigua & Barbuda",0.47158984760727,"NEV"
"AUS","SYD","Sydney Kingsford Smith International Airport","AU","large_airport",-33.946098,151.177002,21,"Australia",0.479701869855454,"MEL"
"AUS","MEL","Melbourne Airport","AU","large_airport",-37.661548,144.836432,434,"Australia",0.479701869855454,"SYD"
"AUS","PER","Perth International Airport","AU","large_airport",-31.940299987793,115.967002868652,67,"Australia",0.479701869855454,"DPS"
"AUS","BNE","Brisbane International Airport","AU","large_airport",-27.3841991424561,153.117004394531,13,"Australia",0.479701869855454,"SYD"
"AUT","GRZ","Graz Airport","AT","medium_airport",46.9911,15.4396,1115,"Austria",0.350398075210208,"ZAG"
"AUT","SZG","Salzburg Airport","AT","medium_airport",47.793301,13.0043,1411,"Austria",0.350398075210208,"MUC"
"AUT","VIE","Vienna International Airport","AT","large_airport",48.110298,16.5697,600,"Austria",0.350398075210208,"BTS"
"AUT","INN","Innsbruck Airport","AT","medium_airport",47.260201,11.344,1907,"Austria",0.350398075210208,"BZO"
"AZE","GYD","Heydar Aliyev International Airport","AZ","large_airport",40.4674987792969,50.0466995239258,10,"Azerbaijan",0.351425662567127,"MCX"
"BEL","OST","Oostende-Brugge International Airport","BE","medium_airport",51.1998,2.874673,13,"Belgium",0.340252240470292,"LIL"
"BEL","CRL","Brussels South Charleroi Airport","BE","medium_airport",50.460982,4.457158,614,"Belgium",0.340252240470292,"BRU"
"BEL","ANR","Antwerp International Airport (Deurne)","BE","medium_airport",51.190667,4.463153,39,"Belgium",0.340252240470292,"BRU"
"BEL","BRU","Brussels Airport","BE","large_airport",50.901402,4.48444,175,"Belgium",0.340252240470292,"ANR"
"BEL","LGG","Liège Airport","BE","medium_airport",50.638574,5.443897,659,"Belgium",0.340252240470292,"CRL"
"BEN","COO","Cadjehoun Airport","BJ","medium_airport",6.3572301864624,2.38435006141663,19,"Benin",0.446956390697288,"LOS"
"BFA","OUA","Ouagadougou Airport","BF","medium_airport",12.3532,-1.51242,1037,"Burkina Faso",0.528877253582147,"TML"
"BGD","DAC","Hazrat Shahjalal International Airport","BD","large_airport",23.843347,90.397783,30,"Bangladesh",0.518711858027425,"CCU"
"BGR","SOF","Sofia Airport","BG","large_airport",42.696357,23.417671,1742,"Bulgaria",0.382397434466871,"INI"
"BGR","VAR","Varna Airport","BG","large_airport",43.232101,27.8251,230,"Bulgaria",0.382397434466871,"BOJ"
"BGR","BOJ","Burgas Airport","BG","large_airport",42.569917,27.515173,135,"Bulgaria",0.382397434466871,"VAR"
"BHR","BAH","Bahrain International Airport","BH","large_airport",26.267295,50.63764,6,"Bahrain",0.417772393608188,"DMM"
"BHS","TBI","New Bight Airport","BS","medium_airport",24.3153,-75.452301,5,"Bahamas",0.427355856801259,"SML"
"BHS","MHH","Leonard M Thompson International Airport","BS","medium_airport",26.510711,-77.084262,6,"Bahamas",0.427355856801259,"TCB"
"BHS","NAS","Lynden Pindling International Airport","BS","large_airport",25.039,-77.466202,16,"Bahamas",0.427355856801259,"ELH"
"BHS","SML","Stella Maris Airport","BS","medium_airport",23.582317,-75.268621,10,"Bahamas",0.427355856801259,"TBI"
"BHS","TCB","Treasure Cay Airport","BS","medium_airport",26.745300293,-77.3912963867,8,"Bahamas",0.427355856801259,"MHH"
"BHS","FPO","Grand Bahama International Airport","BS","medium_airport",26.5587005615,-78.695602417,7,"Bahamas",0.427355856801259,"NSB"
"BHS","NSB","Bimini North Seaplane Base","BS","seaplane_base",25.767,-79.25,851.16211745244,"Bahamas",0.427355856801259,"FLL"
"BHS","GHB","Governor's Harbour Airport","BS","medium_airport",25.2847,-76.331001,26,"Bahamas",0.427355856801259,"ELH"
"BHS","ZSA","San Salvador Airport","BS","medium_airport",24.063299,-74.524002,24,"Bahamas",0.427355856801259,"SML"
"BHS","ELH","North Eleuthera Airport","BS","medium_airport",25.474899292,-76.6835021973,13,"Bahamas",0.427355856801259,"GHB"
"BIH","SJJ","Sarajevo International Airport","BA","large_airport",43.8246,18.331499,1708,"Bosnia & Herzegovina",0.357424308530784,"DBV"
"BLM","SBH","Saint Barthélemy - Gustaf III Airport","BL","medium_airport",17.9044,-62.843601,49,"St. Barthélemy",0.434583075941399,"SKB"
"BLR","MSQ","Minsk National Airport","BY","large_airport",53.888071,28.039964,670,"Belarus",0.326182094472317,"VNO"
"BMU","BDA","L.F. Wade International Airport","BM","medium_airport",32.363998,-64.678703,12,"Bermuda",0.481034463430793,"ACK"
"BOL","VVI","Viru Viru International Airport","BO","large_airport",-17.6448,-63.135399,1224,"Bolivia",0.448376510207001,"LPB"
"BOL","LPB","El Alto International Airport","BO","medium_airport",-16.5132999420166,-68.1922988891602,13355,"Bolivia",0.448376510207001,"JUL"
"BRA","CPV","Presidente João Suassuna Airport","BR","medium_airport",-7.269662,-35.896057,1646,"Brazil",0.501336214395501,"JPA"
"BRA","VDC","Glauber de Andrade Rocha Airport","BR","medium_airport",-14.907885,-40.914804,2940,"Brazil",0.501336214395501,"IOS"
"BRA","CAC","Coronel Adalberto Mendes da Silva Airport","BR","medium_airport",-25.000323,-53.501208,2481,"Brazil",0.501336214395501,"IGU"
"BRA","RRJ","Jacarepaguá - Roberto Marinho Airport","BR","small_airport",-22.986773,-43.372194,10,"Brazil",0.501336214395501,"SDU"
"BRA","JJD","Comandante Ariston Pessoa Airport","BR","medium_airport",-2.906425,-40.357338,89,"Brazil",0.501336214395501,"FOR"
"BRA","XAP","Serafin Enoss Bertaso Airport","BR","medium_airport",-27.134199,-52.656601,2154,"Brazil",0.501336214395501,"PFB"
"BRA","VCP","Viracopos International Airport","BR","medium_airport",-23.007404,-47.134502,2170,"Brazil",0.501336214395501,"GRU"
"BRA","BVB","Atlas Brasil Cantanhede Airport","BR","medium_airport",2.845855,-60.690944,276,"Brazil",0.501336214395501,"GEO"
"BRA","JDO","Orlando Bezerra de Menezes Airport","BR","small_airport",-7.21932,-39.269096,1342,"Brazil",0.501336214395501,"PNZ"
"BRA","IOS","Bahia - Jorge Amado Airport","BR","medium_airport",-14.815929,-39.033458,15,"Brazil",0.501336214395501,"BPS"
"BRA","ARU","Araçatuba Airport","BR","medium_airport",-21.141479,-50.424575,1361,"Brazil",0.501336214395501,"SJP"
"BRA","JOI","Lauro Carneiro de Loyola Airport","BR","medium_airport",-26.224501,-48.797401,15,"Brazil",0.501336214395501,"NVT"
"BRA","ATM","Altamira Interstate Airport","BR","medium_airport",-3.253144,-52.253938,368,"Brazil",0.501336214395501,"PTQ"
"BRA","MII","Frank Miloye Milenkowichi–Marília State Airport","BR","medium_airport",-22.196899,-49.926485,2134,"Brazil",0.501336214395501,"JTC"
"BRA","JPR","Ji-Paraná Airport","BR","small_airport",-10.870743,-61.846675,598,"Brazil",0.501336214395501,"PVH"
"BRA","JPA","Presidente Castro Pinto International Airport","BR","medium_airport",-7.148691,-34.950554,217,"Brazil",0.501336214395501,"CPV"
"BRA","CGR","Campo Grande Airport","BR","medium_airport",-20.469998,-54.673988,1833,"Brazil",0.501336214395501,"PPB"
"BRA","POA","Salgado Filho International Airport","BR","medium_airport",-29.994712,-51.166592,11,"Brazil",0.501336214395501,"CXJ"
"BRA","GIG","Rio Galeão – Tom Jobim International Airport","BR","large_airport",-22.809999,-43.250557,28,"Brazil",0.501336214395501,"SDU"
"BRA","CKS","Carajás Airport","BR","medium_airport",-6.117841,-50.003372,2064,"Brazil",0.501336214395501,"MAB"
"BRA","LDB","Governor José Richa Airport","BR","medium_airport",-23.334375,-51.128365,1867,"Brazil",0.501336214395501,"MGF"
"BRA","GVR","Coronel Altino Machado Airport","BR","medium_airport",-18.895882,-41.982869,561,"Brazil",0.501336214395501,"IPN"
"BRA","JTC","Bauru/Arealva–Moussa Nakhal Tobias State Airport","BR","medium_airport",-22.160755,-49.070325,1962,"Brazil",0.501336214395501,"MII"
"BRA","IPN","Usiminas Airport","BR","medium_airport",-19.470699,-42.487598,786,"Brazil",0.501336214395501,"GVR"
"BRA","CGB","Marechal Rondon Airport","BR","medium_airport",-15.6529,-56.116699,617,"Brazil",0.501336214395501,"SMT"
"BRA","BSB","Presidente Juscelino Kubitschek International Airport","BR","large_airport",-15.869167,-47.920834,3497,"Brazil",0.501336214395501,"GYN"
"BRA","BRA","Dom Ricardo Weberberger Airport","BR","small_airport",-12.0789,-45.008999,2451,"Brazil",0.501336214395501,"PMW"
"BRA","MCZ","Zumbi dos Palmares Airport","BR","medium_airport",-9.51081,-35.791698,387,"Brazil",0.501336214395501,"CAU"
"BRA","MCP","Macapá - Alberto Alcolumbre International Airport","BR","medium_airport",0.050664,-51.072201,56,"Brazil",0.501336214395501,"PTQ"
"BRA","IZA","Presidente Itamar Franco Airport","BR","medium_airport",-21.513086,-43.173069,1348,"Brazil",0.501336214395501,"GIG"
"BRA","FOR","Pinto Martins International Airport","BR","large_airport",-3.775833,-38.532222,83,"Brazil",0.501336214395501,"JJD"
"BRA","NVT","Ministro Victor Konder International Airport","BR","medium_airport",-26.879431,-48.650979,18,"Brazil",0.501336214395501,"JOI"
"BRA","SLZ","Marechal Cunha Machado International Airport","BR","medium_airport",-2.58536,-44.2341,178,"Brazil",0.501336214395501,"THE"
"BRA","PFB","Lauro Kurtz Airport","BR","medium_airport",-28.243976,-52.32777,2380,"Brazil",0.501336214395501,"XAP"
"BRA","PMW","Brigadeiro Lysias Rodrigues Airport","BR","medium_airport",-10.2915,-48.356998,774,"Brazil",0.501336214395501,"BRA"
"BRA","SJP","Prof. Eribelto Manoel Reino State Airport","BR","medium_airport",-20.817113,-49.406963,1784,"Brazil",0.501336214395501,"ARU"
"BRA","AJU","Aracaju - Santa Maria International Airport","BR","medium_airport",-10.984,-37.070301,139,"Brazil",0.501336214395501,"MCZ"
"BRA","THE","Senador Petrônio Portela Airport","BR","medium_airport",-5.06025,-42.823712,219,"Brazil",0.501336214395501,"SLZ"
"BRA","PPB","Presidente Prudente Airport","BR","medium_airport",-22.1751,-51.424599,1477,"Brazil",0.501336214395501,"LDB"
"BRA","UDI","Ten. Cel. Aviador César Bombonato Airport","BR","medium_airport",-18.883579,-48.225936,3094,"Brazil",0.501336214395501,"UBA"
"BRA","UBA","Mário de Almeida Franco Airport","BR","medium_airport",-19.765036,-47.964805,2655,"Brazil",0.501336214395501,"UDI"
"BRA","VAG","Major Brigadeiro Trompowsky Airport","BR","medium_airport",-21.591375,-45.474116,3025,"Brazil",0.501336214395501,"SJK"
"BRA","CNF","Tancredo Neves International Airport","BR","large_airport",-19.63571,-43.966928,2721,"Brazil",0.501336214395501,"IPN"
"BRA","CAU","Caruaru Airport","BR","small_airport",-8.28239,-36.0135,1891,"Brazil",0.501336214395501,"CPV"
"BRA","FEN","Fernando de Noronha Airport","BR","medium_airport",-3.854471,-32.423302,193,"Brazil",0.501336214395501,"NAT"
"BRA","SJK","Professor Urbano Ernesto Stumpf Airport","BR","medium_airport",-23.2292,-45.8615,2120,"Brazil",0.501336214395501,"GRU"
"BRA","GYN","Santa Genoveva Airport","BR","medium_airport",-16.632,-49.220699,2450,"Brazil",0.501336214395501,"BSB"
"BRA","GRU","Guarulhos - Governador André Franco Montoro International Airport","BR","large_airport",-23.431944,-46.467778,2461,"Brazil",0.501336214395501,"CGH"
"BRA","PET","João Simões Lopes Neto International Airport","BR","medium_airport",-31.717253,-52.327952,59,"Brazil",0.501336214395501,"POA"
"BRA","SSA","Deputado Luiz Eduardo Magalhães International Airport","BR","large_airport",-12.908611,-38.322498,64,"Brazil",0.501336214395501,"IOS"
"BRA","MAB","João Correa da Rocha Airport","BR","medium_airport",-5.36859,-49.138,357,"Brazil",0.501336214395501,"CKS"
"BRA","TBT","Tabatinga Airport","BR","medium_airport",-4.25567,-69.935799,263,"Brazil",0.501336214395501,"LET"
"BRA","BEL","Val de Cans/Júlio Cezar Ribeiro International Airport","BR","large_airport",-1.379279,-48.476207,54,"Brazil",0.501336214395501,"MCP"
"BRA","MGF","Regional de Maringá - Sílvio Name Júnior Airport","BR","medium_airport",-23.47606,-52.016187,1801,"Brazil",0.501336214395501,"LDB"
"BRA","MOC","Mário Ribeiro Airport","BR","medium_airport",-16.706919,-43.818901,2191,"Brazil",0.501336214395501,"GVR"
"BRA","VIX","Eurico de Aguiar Salles Airport","BR","large_airport",-20.258,-40.285,34,"Brazil",0.501336214395501,"GVR"
"BRA","POJ","Patos de Minas Airport","BR","small_airport",-18.672673,-46.491292,2794,"Brazil",0.501336214395501,"UDI"
"BRA","FLN","Hercílio Luz International Airport","BR","large_airport",-27.670279,-48.552502,16,"Brazil",0.501336214395501,"NVT"
"BRA","NAT","São Gonçalo do Amarante - Governador Aluízio Alves International Airport","BR","medium_airport",-5.769804,-35.366578,272,"Brazil",0.501336214395501,"JPA"
"BRA","OPS","Presidente João Batista Figueiredo Airport","BR","small_airport",-11.885001,-55.586109,1227,"Brazil",0.501336214395501,"SMT"
"BRA","CXJ","Hugo Cantergiani Regional Airport","BR","medium_airport",-29.197183,-51.187647,2472,"Brazil",0.501336214395501,"POA"
"BRA","CGH","Congonhas Airport","BR","medium_airport",-23.627657,-46.654601,2631,"Brazil",0.501336214395501,"GRU"
"BRA","STM","Santarém - Maestro Wilson Fonseca International Airport","BR","medium_airport",-2.422423,-54.79306,198,"Brazil",0.501336214395501,"PTQ"
"BRA","PNZ","Senador Nilo Coelho Airport","BR","medium_airport",-9.362422,-40.569098,1263,"Brazil",0.501336214395501,"JDO"
"BRA","MAO","Eduardo Gomes International Airport","BR","large_airport",-3.03861,-60.049702,264,"Brazil",0.501336214395501,"STM"
"BRA","REC","Recife/Guararapes - Gilberto Freyre International Airport","BR","medium_airport",-8.125984,-34.923316,33,"Brazil",0.501336214395501,"JPA"
"BRA","SDU","Santos Dumont Airport","BR","medium_airport",-22.9105,-43.163101,11,"Brazil",0.501336214395501,"GIG"
"BRA","PTQ","Porto de Moz Airport","BR","small_airport",-1.74145,-52.236099,53,"Brazil",0.501336214395501,"ATM"
"BRA","RAO","Leite Lopes Airport","BR","medium_airport",-21.134314,-47.774053,1805,"Brazil",0.501336214395501,"UBA"
"BRA","BPS","Porto Seguro Airport","BR","large_airport",-16.438426,-39.080584,169,"Brazil",0.501336214395501,"IOS"
"BRA","IGU","Cataratas International Airport","BR","medium_airport",-25.594167,-54.489444,786,"Brazil",0.501336214395501,"IGR"
"BRA","RIA","Santa Maria Airport","BR","medium_airport",-29.711399,-53.688202,287,"Brazil",0.501336214395501,"PFB"
"BRA","JJG","Humberto Ghizzo Bortoluzzi Regional Airport","BR","small_airport",-28.6753,-49.0596,120,"Brazil",0.501336214395501,"FLN"
"BRA","SMT","Adolino Bedin Regional Airport","BR","small_airport",-12.479177,-55.672341,1266,"Brazil",0.501336214395501,"OPS"
"BRA","IMP","Prefeito Renato Moreira Airport","BR","medium_airport",-5.53129,-47.459999,430,"Brazil",0.501336214395501,"MAB"
"BRA","PVH","Governador Jorge Teixeira de Oliveira Airport","BR","medium_airport",-8.707854,-63.90242,295,"Brazil",0.501336214395501,"JPR"
"BRA","RBR","Rio Branco-Plácido de Castro International Airport","BR","medium_airport",-9.869031,-67.893984,633,"Brazil",0.501336214395501,"PEM"
"BRA","CWB","Afonso Pena Airport","BR","medium_airport",-25.5285,-49.1758,2988,"Brazil",0.501336214395501,"JOI"
"BRB","BGI","Grantley Adams International Airport","BB","medium_airport",13.0746,-59.4925,169,"Barbados",0.396215852502981,"SLU"
"BTN","YON","Yongphulla Airport","BT","small_airport",27.25627,91.514633,9000,"Bhutan",0.484918873044531,"PBH"
"BTN","PBH","Paro International Airport","BT","medium_airport",27.4032,89.424599,7364,"Bhutan",0.484918873044531,"YON"
"BWA","GBE","Sir Seretse Khama International Airport","BW","large_airport",-24.555201,25.9182,3299,"Botswana",0.356489481499326,"HLA"
"CAF","BGF","Bangui M'Poko International Airport","CF","medium_airport",4.39847993850708,18.5188007354736,1208,"Central African Republic",0.495291075325745,"NSI"
"CAN","YQB","Quebec Jean Lesage International Airport","CA","large_airport",46.7911,-71.393303,244,"Canada",0.433493772078883,"YUL"
"CAN","YUL","Montreal / Pierre Elliott Trudeau International Airport","CA","large_airport",45.467837,-73.742294,118,"Canada",0.433493772078883,"SLK"
"CAN","YYC","Calgary International Airport","CA","large_airport",51.118822,-114.009933,3557,"Canada",0.433493772078883,"YVR"
"CAN","YVR","Vancouver International Airport","CA","large_airport",49.193901062,-123.183998108,14,"Canada",0.433493772078883,"SEA"
"CAN","YQX","Gander International Airport / CFB Gander","CA","medium_airport",48.936258,-54.567719,496,"Canada",0.433493772078883,"BHB"
"CAN","YYZ","Toronto Lester B. Pearson International Airport","CA","large_airport",43.6772,-79.6306,569,"Canada",0.433493772078883,"BUF"
"CHE","ZRH","Zürich Airport","CH","large_airport",47.458056,8.548056,1417,"Switzerland",0.308516918238188,"ACH"
"CHE","ACH","Sankt Gallen Altenrhein Airport","CH","medium_airport",47.485001,9.56077,1306,"Switzerland",0.308516918238188,"FMM"
"CHE","LUG","Lugano Airport","CH","medium_airport",46.004299,8.91058,915,"Switzerland",0.308516918238188,"MXP"
"CHE","GVA","Geneva Cointrin International Airport","CH","large_airport",46.238098,6.10895,1411,"Switzerland",0.308516918238188,"LYS"
"CHL","IQQ","Diego Aracena Airport","CL","medium_airport",-20.5352,-70.181297,155,"Chile",0.384224730254937,"ARI"
"CHL","ZOS","Cañal Bajo Carlos Hott Siebert Airport","CL","medium_airport",-40.611198,-73.060997,187,"Chile",0.384224730254937,"PMC"
"CHL","PUQ","President Carlos Ibañez del Campo International Airport","CL","medium_airport",-53.002602,-70.854599,139,"Chile",0.384224730254937,"RGL"
"CHL","CJC","El Loa Airport","CL","medium_airport",-22.498199,-68.903603,7543,"Chile",0.384224730254937,"ANF"
"CHL","SCL","Comodoro Arturo Merino Benítez International Airport","CL","large_airport",-33.3930015563965,-70.7857971191406,1555,"Chile",0.384224730254937,"MDZ"
"CHL","ANF","Andrés Sabella Gálvez International Airport","CL","medium_airport",-23.444501,-70.445099,455,"Chile",0.384224730254937,"CJC"
"CHL","CCP","Carriel Sur Airport","CL","medium_airport",-36.772701,-73.063103,26,"Chile",0.384224730254937,"ZCO"
"CHL","ZAL","Pichoy Airport","CL","medium_airport",-39.6500015259,-73.0860977173,59,"Chile",0.384224730254937,"ZCO"
"CHL","IPC","Mataveri Airport","CL","medium_airport",-27.1648006439,-109.42199707,227,"Chile",0.384224730254937,"CCP"
"CHL","LSC","La Florida Airport","CL","medium_airport",-29.916201,-71.199501,481,"Chile",0.384224730254937,"CPO"
"CHL","BBA","Balmaceda Airport","CL","medium_airport",-45.915968,-71.689499,1722,"Chile",0.384224730254937,"CRD"
"CHL","CPO","Desierto de Atacama Airport","CL","medium_airport",-27.2611999512,-70.7791976929,670,"Chile",0.384224730254937,"LSC"
"CHL","ZCO","La Araucanía Airport","CL","medium_airport",-38.9259,-72.6515,333,"Chile",0.384224730254937,"ZAL"
"CHL","ARI","Chacalluta Airport","CL","medium_airport",-18.348499,-70.338699,167,"Chile",0.384224730254937,"TCQ"
"CHL","PMC","El Tepual Airport","CL","medium_airport",-41.4388999938965,-73.0940017700195,294,"Chile",0.384224730254937,"ZOS"
"CHN","CGO","Zhengzhou Xinzheng International Airport","CN","large_airport",34.526497,113.849165,495,"China",0.448468640500951,"HFE"
"CHN","DNH","Dunhuang Mogao International Airport","CN","medium_airport",40.161098,94.809196,851.16211745244,"China",0.448468640500951,"HMI"
"CHN","NNG","Nanning Wuxu Airport","CN","large_airport",22.608544,108.175335,421,"China",0.448468640500951,"BHY"
"CHN","WUH","Wuhan Tianhe International Airport","CN","large_airport",30.774798,114.213723,113,"China",0.448468640500951,"JIU"
"CHN","XNN","Xining Caojiabao International Airport","CN","medium_airport",36.530093,102.040062,7119,"China",0.448468640500951,"GXH"
"CHN","AXF","Alxa Left Banner Bayanhot Airport","CN","medium_airport",38.74831,105.58858,4560,"China",0.448468640500951,"INC"
"CHN","JGS","Jinggangshan Airport","CN","medium_airport",26.856899,114.737,281,"China",0.448468640500951,"CSX"
"CHN","KWL","Guilin Liangjiang International Airport","CN","large_airport",25.219828,110.039553,570,"China",0.448468640500951,"HJJ"
"CHN","YIH","Yichang Sanxia Airport","CN","medium_airport",30.554132,111.482563,673,"China",0.448468640500951,"CGD"
"CHN","GXH","Gannan Xiahe Airport","CN","medium_airport",34.819014,102.622261,10510,"China",0.448468640500951,"XNN"
"CHN","XMN","Xiamen Gaoqi International Airport","CN","large_airport",24.5440006256104,118.127998352051,59,"China",0.448468640500951,"SWA"
"CHN","HET","Hohhot Baita International Airport","CN","large_airport",40.849658,111.824598,3556,"China",0.448468640500951,"DSN"
"CHN","JHG","Xishuangbanna Gasa International Airport","CN","medium_airport",21.974648,100.762224,1815,"China",0.448468640500951,"KET"
"CHN","LJG","Lijiang Sanyi International Airport","CN","medium_airport",26.68,100.246002,7359,"China",0.448468640500951,"DLU"
"CHN","CSX","Changsha Huanghua International Airport","CN","large_airport",28.189199,113.220001,217,"China",0.448468640500951,"CGD"
"CHN","BHY","Beihai Fucheng Airport","CN","medium_airport",21.5394,109.293999,75,"China",0.448468640500951,"NNG"
"CHN","CGD","Changde Taohuayuan Airport","CN","medium_airport",28.9189,111.639999,128,"China",0.448468640500951,"CSX"
"CHN","JIC","Jinchang Jinchuan Airport","CN","small_airport",38.542222,102.348333,4740,"China",0.448468640500951,"XNN"
"CHN","DSN","Ordos Ejin Horo Airport","CN","medium_airport",39.493514,109.8599,4557,"China",0.448468640500951,"UYN"
"CHN","DOY","Dongying Shengli Airport","CN","medium_airport",37.50137,118.789863,15,"China",0.448468640500951,"TAO"
"CHN","PEK","Beijing Capital International Airport","CN","large_airport",40.0801010131836,116.584999084473,116,"China",0.448468640500951,"PKX"
"CHN","SWA","Jieyang Chaoshan International Airport","CN","medium_airport",23.552,116.5033,851.16211745244,"China",0.448468640500951,"XMN"
"CHN","CAN","Guangzhou Baiyun International Airport","CN","large_airport",23.392401,113.299004,50,"China",0.448468640500951,"SZX"
"CHN","KRY","Karamay Airport","CN","small_airport",45.46655,84.9527,851.16211745244,"China",0.448468640500951,"BPL"
"CHN","KHG","Kashgar Laining International Airport","CN","medium_airport",39.5429,76.019997,4529,"China",0.448468640500951,"OSS"
"CHN","URC","Ürümqi Tianshan International Airport","CN","large_airport",43.907101,87.474197,2125,"China",0.448468640500951,"KRY"
"CHN","HRB","Harbin Taiping International Airport","CN","large_airport",45.623402,126.25,457,"China",0.448468640500951,"TGO"
"CHN","SYX","Sanya Phoenix International Airport","CN","large_airport",18.3029,109.412003,92,"China",0.448468640500951,"DAD"
"CHN","SHE","Shenyang Taoxian International Airport","CN","large_airport",41.639801,123.483002,198,"China",0.448468640500951,"TGO"
"CHN","KMG","Kunming Changshui International Airport","CN","large_airport",25.110313,102.936743,6903,"China",0.448468640500951,"DLU"
"CHN","INC","Yinchuan Hedong International Airport","CN","medium_airport",38.322758,106.393214,3743,"China",0.448468640500951,"AXF"
"CHN","KHN","Nanchang Changbei International Airport","CN","large_airport",28.864815,115.90271,143,"China",0.448468640500951,"JIU"
"CHN","LXA","Lhasa Gonggar Airport","CN","medium_airport",29.298001,90.911951,11713,"China",0.448468640500951,"YON"
"CHN","LZY","Nyingchi Mainling Airport","CN","medium_airport",29.303301,94.335297,9675,"China",0.448468640500951,"LXA"
"CHN","BPL","Bole Alashankou Airport","CN","medium_airport",44.895461,82.30007,1253,"China",0.448468640500951,"KRY"
"CHN","XIY","Xi'an Xianyang International Airport","CN","large_airport",34.447102,108.751999,1572,"China",0.448468640500951,"UYN"
"CHN","BPE","Qinhuangdao Beidaihe Airport","CN","medium_airport",39.666384,119.061384,46,"China",0.448468640500951,"TSN"
"CHN","PVG","Shanghai Pudong International Airport","CN","large_airport",31.1434,121.805,13,"China",0.448468640500951,"SHA"
"CHN","DLU","Dali Fengyi Airport","CN","medium_airport",25.649401,100.319,7050,"China",0.448468640500951,"LJG"
"CHN","TSN","Tianjin Binhai International Airport","CN","large_airport",39.1244010925,117.346000671,10,"China",0.448468640500951,"PKX"
"CHN","DLC","Dalian Zhoushuizi International Airport","CN","large_airport",38.965719,121.538477,107,"China",0.448468640500951,"YNT"
"CHN","WUT","Xinzhou Wutaishan Airport","CN","small_airport",38.597456,112.969173,2527,"China",0.448468640500951,"HET"
"CHN","YNT","Yantai Penglai International Airport","CN","large_airport",37.659724,120.978124,154,"China",0.448468640500951,"DLC"
"CHN","YIW","Yiwu Airport","CN","medium_airport",29.342095,120.03116,262,"China",0.448468640500951,"HGH"
"CHN","HJJ","Huaihua Zhijiang Airport","CN","medium_airport",27.443087,109.704666,882,"China",0.448468640500951,"KWL"
"CHN","PKX","Beijing Daxing International Airport","CN","large_airport",39.509945,116.41092,98,"China",0.448468640500951,"PEK"
"CHN","CKG","Chongqing Jiangbei International Airport","CN","large_airport",29.712254,106.651895,1365,"China",0.448468640500951,"CTU"
"CHN","CTU","Chengdu Shuangliu International Airport","CN","large_airport",30.558257,103.945966,1625,"China",0.448468640500951,"CKG"
"CHN","HMI","Hami Airport","CN","medium_airport",42.8414,93.669197,2703,"China",0.448468640500951,"DNH"
"CHN","JIU","Jiujiang Lushan Airport","CN","small_airport",29.476944,115.801111,851.16211745244,"China",0.448468640500951,"KHN"
"CHN","CIF","Chifeng Yulong Airport","CN","medium_airport",42.159723,118.840971,2018,"China",0.448468640500951,"BPE"
"CHN","TAO","Qingdao Jiaodong International Airport","CN","large_airport",36.361953,120.088171,30,"China",0.448468640500951,"YNT"
"CHN","SZX","Shenzhen Bao'an International Airport","CN","large_airport",22.639299,113.810997,13,"China",0.448468640500951,"ZUH"
"CHN","UYN","Yulin Yuyang Airport","CN","small_airport",38.35971,109.590927,3891,"China",0.448468640500951,"DSN"
"CHN","TGO","Tongliao Airport","CN","medium_airport",43.556702,122.199997,2395,"China",0.448468640500951,"SHE"
"CHN","WUX","Sunan Shuofang International Airport","CN","medium_airport",31.4944000244,120.429000854,24,"China",0.448468640500951,"SHA"
"CHN","WNZ","Wenzhou Longwan International Airport","CN","large_airport",27.910572,120.853465,13,"China",0.448468640500951,"YIW"
"CHN","SHA","Shanghai Hongqiao International Airport","CN","large_airport",31.198104,121.33426,10,"China",0.448468640500951,"PVG"
"CHN","NKG","Nanjing Lukou International Airport","CN","large_airport",31.735032,118.865949,49,"China",0.448468640500951,"WUX"
"CHN","NGB","Ningbo Lishe International Airport","CN","large_airport",29.8267002105713,121.46199798584,13,"China",0.448468640500951,"HGH"
"CHN","HGH","Hangzhou Xiaoshan International Airport","CN","large_airport",30.23609,120.428865,23,"China",0.448468640500951,"YIW"
"CHN","KWE","Guiyang Longdongbao International Airport","CN","large_airport",26.541466,106.803331,3736,"China",0.448468640500951,"HJJ"
"CHN","ZUH","Zhuhai Jinwan Airport","CN","medium_airport",22.006399,113.375999,23,"China",0.448468640500951,"SZX"
"CHN","HFE","Hefei Xinqiao International Airport","CN","medium_airport",31.98779,116.9769,207,"China",0.448468640500951,"NKG"
"CIV","ABJ","Félix-Houphouët-Boigny International Airport","CI","medium_airport",5.26139,-3.92629,21,"Côte d’Ivoire",0.450808963919453,"TKD"
"CMR","MVR","Salak Airport","CM","medium_airport",10.4513998031616,14.257399559021,1390,"Cameroon",0.462496237701737,"NDJ"
"CMR","NSI","Yaoundé Nsimalen International Airport","CM","medium_airport",3.72256,11.5533,2278,"Cameroon",0.462496237701737,"DLA"
"CMR","DLA","Douala International Airport","CM","medium_airport",4.0060801506,9.71947956085,33,"Cameroon",0.462496237701737,"SSG"
"COD","FBM","Lubumbashi International Airport","CD","medium_airport",-11.5913000107,27.5308990479,4295,"Congo - Kinshasa",0.494408852040563,"NLA"
"COD","FKI","Bangoka International Airport","CD","medium_airport",0.481638997793,25.3379993439,1417,"Congo - Kinshasa",0.494408852040563,"KGL"
"COG","BZV","Maya-Maya Airport","CG","medium_airport",-4.25169992446899,15.2530002593994,1048,"Congo - Brazzaville",0.486705230457993,"MVB"
"COG","PNR","Antonio Agostinho-Neto International Airport","CG","medium_airport",-4.81603,11.8866,55,"Congo - Brazzaville",0.486705230457993,"BZV"
"COK","RAR","Rarotonga International Airport","CK","medium_airport",-21.2027,-159.806,19,"Cook Islands",0.451625729995842,"AKL"
"COL","IPI","San Luis Airport","CO","medium_airport",0.861946,-77.671783,9765,"Colombia",0.501320631913842,"PSO"
"COL","RCH","Almirante Padilla Airport","CO","medium_airport",11.5262,-72.926,43,"Colombia",0.501320631913842,"VUP"
"COL","BOG","El Dorado International Airport","CO","large_airport",4.70159,-74.1469,8361,"Colombia",0.501320631913842,"VVC"
"COL","BGA","Palonegro Airport","CO","medium_airport",7.1265,-73.1848,3897,"Colombia",0.501320631913842,"EJA"
"COL","AXM","El Eden Airport","CO","medium_airport",4.45278,-75.7664,3990,"Colombia",0.501320631913842,"PEI"
"COL","PUU","Tres De Mayo Airport","CO","medium_airport",0.505228,-76.5008,815,"Colombia",0.501320631913842,"PSO"
"COL","BAQ","Ernesto Cortissoz International Airport","CO","medium_airport",10.8896,-74.7808,98,"Colombia",0.501320631913842,"SMR"
"COL","LQM","Caucaya Airport","CO","small_airport",-0.182278,-74.7708,573,"Colombia",0.501320631913842,"PUU"
"COL","BSC","José Celestino Mutis Airport","CO","medium_airport",6.20292,-77.3947,80,"Colombia",0.501320631913842,"NQU"
"COL","PPN","Guillermo León Valencia Airport","CO","medium_airport",2.4544,-76.6093,5687,"Colombia",0.501320631913842,"CLO"
"COL","IBE","Perales Airport","CO","medium_airport",4.42161,-75.1333,2999,"Colombia",0.501320631913842,"AXM"
"COL","GPI","Juan Casiano Airport","CO","medium_airport",2.57013,-77.897969,164,"Colombia",0.501320631913842,"TCO"
"COL","PDA","Obando Cesar Gaviria Trujillo Airport","CO","medium_airport",3.85353,-67.9062,460,"Colombia",0.501320631913842,"PCR"
"COL","EJA","Yariguíes Airport","CO","medium_airport",7.02433,-73.8068,412,"Colombia",0.501320631913842,"BGA"
"COL","APO","Antonio Roldán Betancur Airport","CO","medium_airport",7.81196,-76.7164,46,"Colombia",0.501320631913842,"MTR"
"COL","PSO","Antonio Nariño Airport","CO","medium_airport",1.39625,-77.2915,5951,"Colombia",0.501320631913842,"IPI"
"COL","PVA","El Embrujo Airport","CO","medium_airport",13.357461,-81.357977,10,"Colombia",0.501320631913842,"ADZ"
"COL","PEI","Matecaña International Airport","CO","medium_airport",4.81267,-75.7395,4416,"Colombia",0.501320631913842,"MZL"
"COL","CZU","Las Brujas Airport","CO","medium_airport",9.33274,-75.2856,528,"Colombia",0.501320631913842,"MTR"
"COL","NVA","Benito Salas Airport","CO","medium_airport",2.95015,-75.294,1464,"Colombia",0.501320631913842,"CLO"
"COL","FLA","Gustavo Artunduaga Paredes Airport","CO","medium_airport",1.58919,-75.5644,803,"Colombia",0.501320631913842,"PPN"
"COL","LET","Alfredo Vásquez Cobo International Airport","CO","medium_airport",-4.19355,-69.9432,277,"Colombia",0.501320631913842,"TBT"
"COL","EYP","El Alcaravan - Yopal Airport","CO","medium_airport",5.31911,-72.384,1028,"Colombia",0.501320631913842,"VVC"
"COL","NQU","Reyes Murillo Airport","CO","small_airport",5.710348,-77.261868,12,"Colombia",0.501320631913842,"BSC"
"COL","RVE","Los Colonizadores Airport","CO","small_airport",6.951868,-71.857179,680,"Colombia",0.501320631913842,"AUC"
"COL","VVC","Vanguardia Airport","CO","medium_airport",4.16787,-73.6138,1394,"Colombia",0.501320631913842,"BOG"
"COL","MDE","Jose Maria Córdova International Airport","CO","medium_airport",6.16454,-75.4231,6955,"Colombia",0.501320631913842,"EOH"
"COL","MZL","La Nubia Airport","CO","medium_airport",5.0296,-75.4647,6871,"Colombia",0.501320631913842,"PEI"
"COL","TCO","La Florida Airport","CO","medium_airport",1.81442,-78.7492,8,"Colombia",0.501320631913842,"GPI"
"COL","PCR","German Olano Airport","CO","medium_airport",6.18472,-67.4932,177,"Colombia",0.501320631913842,"PDA"
"COL","VUP","Alfonso López Pumarejo Airport","CO","medium_airport",10.435,-73.2495,483,"Colombia",0.501320631913842,"RCH"
"COL","MTR","Los Garzones Airport","CO","medium_airport",8.82374,-75.8258,41,"Colombia",0.501320631913842,"CZU"
"COL","AUC","Santiago Perez Airport","CO","medium_airport",7.06888,-70.7369,420,"Colombia",0.501320631913842,"RVE"
"COL","CUC","Camilo Daza International Airport","CO","medium_airport",7.92757,-72.5115,1096,"Colombia",0.501320631913842,"BGA"
"COL","SMR","Simón Bolívar International Airport","CO","medium_airport",11.1196,-74.2306,22,"Colombia",0.501320631913842,"BAQ"
"COL","MVP","Fabio Alberto Leon Bentley Airport","CO","medium_airport",1.25366,-70.2339,680,"Colombia",0.501320631913842,"PDA"
"COL","ADZ","Gustavo Rojas Pinilla International Airport","CO","medium_airport",12.5836,-81.7112,19,"Colombia",0.501320631913842,"PVA"
"COL","UIB","El Caraño Airport","CO","medium_airport",5.69076,-76.6412,204,"Colombia",0.501320631913842,"NQU"
"COL","CTG","Rafael Nuñez International Airport","CO","medium_airport",10.4424,-75.513,4,"Colombia",0.501320631913842,"BAQ"
"COL","EOH","Enrique Olaya Herrera Airport","CO","medium_airport",6.219686,-75.590597,4949,"Colombia",0.501320631913842,"MDE"
"COL","CLO","Alfonso Bonilla Aragon International Airport","CO","medium_airport",3.54322,-76.3816,3162,"Colombia",0.501320631913842,"AXM"
"COM","HAH","Prince Said Ibrahim International Airport","KM","medium_airport",-11.5337,43.2719,93,"Comoros",0.470871413538449,"POL"
"CPV","SID","Amílcar Cabral International Airport","CV","large_airport",16.7414,-22.9494,177,"Cape Verde",0.385477524857862,"DSS"
"CRI","SJO","Juan Santamaría International Airport","CR","large_airport",9.99386,-84.208801,3021,"Costa Rica",0.450954781036395,"DAV"
"CUB","HAV","José Martí International Airport","CU","large_airport",22.989200592041,-82.4091033935547,210,"Cuba",0.497414273672557,"EYW"
"CYM","CYB","Charles Kirkconnell International Airport","KY","medium_airport",19.687,-79.882797,8,"Cayman Islands",0.497414273672557,"HAV"
"CYM","GCM","Owen Roberts International Airport","KY","large_airport",19.292801,-81.357697,8,"Cayman Islands",0.497414273672557,"HAV"
"CYP","ECN","Nicosia (Lefkoşa) Ercan International Airport","CY","medium_airport",35.152337,33.506584,404,"Cyprus",0.340961225694668,"LCA"
"CYP","PFO","Paphos International Airport","CY","medium_airport",34.717999,32.485699,41,"Cyprus",0.340961225694668,"ECN"
"CYP","LCA","Larnaca International Airport","CY","large_airport",34.875099,33.624901,8,"Cyprus",0.340961225694668,"ECN"
"CZE","PRG","Václav Havel Airport Prague","CZ","large_airport",50.100874,14.259911,1247,"Czechia",0.273345134299782,"DRS"
"DEU","HAM","Hamburg Helmut Schmidt Airport","DE","large_airport",53.630402,9.98823,53,"Germany",0.346770314015054,"BRE"
"DEU","ERF","Erfurt-Weimar Airport","DE","medium_airport",50.979801,10.9581,1036,"Germany",0.346770314015054,"LEJ"
"DEU","FMO","Münster Osnabrück Airport","DE","medium_airport",52.134602,7.68483,160,"Germany",0.346770314015054,"DTM"
"DEU","HAJ","Hannover Airport","DE","large_airport",52.461102,9.68508,183,"Germany",0.346770314015054,"BRE"
"DEU","DRS","Dresden Airport","DE","medium_airport",51.134123,13.767831,755,"Germany",0.346770314015054,"LEJ"
"DEU","STR","Stuttgart Airport","DE","large_airport",48.689899,9.22196,1276,"Germany",0.346770314015054,"FKB"
"DEU","FRA","Frankfurt Airport","DE","large_airport",50.030241,8.561096,364,"Germany",0.346770314015054,"HHN"
"DEU","FKB","Karlsruhe Baden-Baden Airport","DE","medium_airport",48.7794,8.0805,408,"Germany",0.346770314015054,"STR"
"DEU","BRE","Bremen Airport","DE","medium_airport",53.046786,8.78932,14,"Germany",0.346770314015054,"HAJ"
"DEU","HHN","Frankfurt-Hahn Airport","DE","medium_airport",49.9487,7.26389,1649,"Germany",0.346770314015054,"SCN"
"DEU","SCN","Saarbrücken Airport","DE","medium_airport",49.2145996094,7.10950994492,1058,"Germany",0.346770314015054,"LUX"
"DEU","NUE","Nuremberg Airport","DE","large_airport",49.498699,11.078056,1046,"Germany",0.346770314015054,"MUC"
"DEU","CGN","Cologne Bonn Airport","DE","large_airport",50.865898,7.14274,302,"Germany",0.346770314015054,"DUS"
"DEU","BER","Berlin Brandenburg Airport","DE","large_airport",52.362247,13.500672,157,"Germany",0.346770314015054,"LEJ"
"DEU","PAD","Paderborn Lippstadt Airport","DE","medium_airport",51.614101,8.61632,699,"Germany",0.346770314015054,"DTM"
"DEU","DUS","Düsseldorf Airport","DE","large_airport",51.289501,6.76678,147,"Germany",0.346770314015054,"CGN"
"DEU","LEJ","Leipzig/Halle Airport","DE","large_airport",51.420657,12.232705,465,"Germany",0.346770314015054,"ERF"
"DEU","FMM","Memmingen Allgau Airport","DE","medium_airport",47.9888000488,10.2395000458,2077,"Germany",0.346770314015054,"ACH"
"DEU","DTM","Dortmund Airport","DE","medium_airport",51.518299,7.61224,425,"Germany",0.346770314015054,"DUS"
"DEU","MUC","Munich Airport","DE","large_airport",48.353802,11.7861,1487,"Germany",0.346770314015054,"SZG"
"DEU","NRN","Weeze Airport","DE","medium_airport",51.6024017334,6.14216995239,106,"Germany",0.346770314015054,"DUS"
"DJI","JIB","Djibouti-Ambouli Airport","DJ","large_airport",11.5473,43.1595,49,"Djibouti",0.413077154067395,"HGA"
"DMA","DOM","Douglas-Charles Airport","DM","medium_airport",15.547,-61.299999,73,"Dominica",0.368598260211752,"SLU"
"DNK","RNN","Bornholm Airport","DK","medium_airport",55.063301,14.7596,52,"Denmark",0.441267455141634,"MMX"
"DNK","BLL","Billund Airport","DK","large_airport",55.740335,9.157019,247,"Denmark",0.441267455141634,"AAR"
"DNK","AAR","Aarhus Airport","DK","medium_airport",56.303331,10.618286,82,"Denmark",0.441267455141634,"AAL"
"DNK","CPH","Copenhagen Kastrup Airport","DK","large_airport",55.617900848389,12.656000137329,17,"Denmark",0.441267455141634,"MMX"
"DNK","AAL","Aalborg Airport","DK","medium_airport",57.094763,9.84993,10,"Denmark",0.441267455141634,"AAR"
"DOM","SDQ","Las Américas International Airport","DO","large_airport",18.42970085144,-69.668899536133,59,"Dominican Republic",0.447163347975723,"PUJ"
"DOM","PUJ","Punta Cana International Airport","DO","large_airport",18.5674,-68.363403,47,"Dominican Republic",0.447163347975723,"SDQ"
"DZA","ORN","Oran Es-Sénia (Ahmed Ben Bella) International Airport","DZ","medium_airport",35.623901,-0.621183,295,"Algeria",0.326538355846216,"OUD"
"DZA","ALG","Houari Boumediene Airport","DZ","large_airport",36.693886,3.214531,82,"Algeria",0.326538355846216,"QSF"
"DZA","CZL","Mohamed Boudiaf International Airport","DZ","medium_airport",36.2760009765625,6.62038993835449,2265,"Algeria",0.326538355846216,"QSF"
"DZA","QSF","Ain Arnat Airport","DZ","medium_airport",36.1781005859,5.32449007034,3360,"Algeria",0.326538355846216,"CZL"
"DZA","AAE","Annaba Rabah Bitat Airport","DZ","medium_airport",36.826781,7.81334,16,"Algeria",0.326538355846216,"CZL"
"ECU","UIO","Mariscal Sucre International Airport","EC","large_airport",-0.125399,-78.354306,7841,"Ecuador",0.531642249278632,"IPI"
"ECU","GYE","José Joaquín de Olmedo International Airport","EC","large_airport",-2.15742,-79.883598,19,"Ecuador",0.531642249278632,"TBP"
"EGY","RMF","Marsa Alam International Airport","EG","medium_airport",25.555548,34.59245,213,"Egypt",0.360242160409324,"HRG"
"EGY","SSH","Sharm El Sheikh International Airport","EG","large_airport",27.977272,34.394717,191,"Egypt",0.360242160409324,"HRG"
"EGY","HRG","Hurghada International Airport","EG","large_airport",27.176776,33.796692,32,"Egypt",0.360242160409324,"SSH"
"EGY","CAI","Cairo International Airport","EG","large_airport",30.111534,31.396694,322,"Egypt",0.360242160409324,"ETM"
"ESH","EUN","Hassan I Airport","EH","medium_airport",27.142467,-13.224947,207,"Western Sahara",0.361404607373498,"FUE"
"ESH","VIL","Dakhla Airport","EH","medium_airport",23.7183,-15.932,36,"Western Sahara",0.361404607373498,"LPA"
"ESP","VLL","Valladolid Airport","ES","medium_airport",41.7061,-4.85194,2776,"Spain",0.361404607373498,"MAD"
"ESP","ACE","César Manrique-Lanzarote Airport","ES","large_airport",28.945499,-13.6052,46,"Spain",0.361404607373498,"FUE"
"ESP","OVD","Asturias Airport","ES","medium_airport",43.563599,-6.03462,416,"Spain",0.361404607373498,"SDR"
"ESP","SDR","Seve Ballesteros-Santander Airport","ES","medium_airport",43.427101,-3.82001,16,"Spain",0.361404607373498,"BIO"
"ESP","VIT","Vitoria Airport","ES","medium_airport",42.882801,-2.72447,1682,"Spain",0.361404607373498,"BIO"
"ESP","LEI","Almería Airport","ES","medium_airport",36.843899,-2.3701,70,"Spain",0.361404607373498,"GRX"
"ESP","ZAZ","Zaragoza Airport","ES","medium_airport",41.666199,-1.04155,863,"Spain",0.361404607373498,"LDE"
"ESP","FUE","Fuerteventura Airport","ES","large_airport",28.4527,-13.8638,85,"Spain",0.361404607373498,"ACE"
"ESP","SCQ","Santiago-Rosalía de Castro Airport","ES","large_airport",42.896301,-8.41514,1213,"Spain",0.361404607373498,"LCG"
"ESP","LCG","A Coruña Airport","ES","medium_airport",43.302101,-8.37726,326,"Spain",0.361404607373498,"SCQ"
"ESP","AGP","Málaga-Costa del Sol Airport","ES","large_airport",36.6749,-4.49911,53,"Spain",0.361404607373498,"GRX"
"ESP","PMI","Palma de Mallorca Airport","ES","large_airport",39.551701,2.73881,27,"Spain",0.361404607373498,"MAH"
"ESP","BIO","Bilbao Airport","ES","medium_airport",43.301102,-2.91061,138,"Spain",0.361404607373498,"VIT"
"ESP","VLC","Valencia Airport","ES","medium_airport",39.4893,-0.481625,240,"Spain",0.361404607373498,"ALC"
"ESP","TFS","Tenerife Sur Airport","ES","large_airport",28.0445,-16.5725,209,"Spain",0.361404607373498,"TFN"
"ESP","ALC","Alicante-Elche Miguel Hernández Airport","ES","large_airport",38.2822,-0.558156,142,"Spain",0.361404607373498,"VLC"
"ESP","SVQ","Sevilla Airport","ES","medium_airport",37.417999,-5.89311,112,"Spain",0.361404607373498,"AGP"
"ESP","BCN","Josep Tarradellas Barcelona-El Prat Airport","ES","large_airport",41.2971,2.07846,12,"Spain",0.361404607373498,"GRO"
"ESP","LPA","Gran Canaria Airport","ES","large_airport",27.9319,-15.3866,78,"Spain",0.361404607373498,"TFN"
"ESP","MAH","Menorca Airport","ES","medium_airport",39.862598,4.21865,302,"Spain",0.361404607373498,"PMI"
"ESP","GRO","Girona-Costa Brava Airport","ES","medium_airport",41.904639,2.761774,468,"Spain",0.361404607373498,"BCN"
"ESP","TFN","Tenerife Norte-Ciudad de La Laguna Airport","ES","medium_airport",28.4827,-16.341499,2076,"Spain",0.361404607373498,"TFS"
"ESP","IBZ","Ibiza Airport","ES","large_airport",38.872898,1.37312,24,"Spain",0.361404607373498,"PMI"
"ESP","MAD","Adolfo Suárez Madrid–Barajas Airport","ES","large_airport",40.471926,-3.56264,1998,"Spain",0.361404607373498,"VLL"
"ESP","GRX","F.G.L. Airport Granada-Jaén Airport","ES","medium_airport",37.188702,-3.77736,1860,"Spain",0.361404607373498,"AGP"
"EST","TLL","Lennart Meri Tallinn Airport","EE","large_airport",59.413246,24.83264,131,"Estonia",0.378825468155188,"HEL"
"ETH","ADD","Addis Ababa Bole International Airport","ET","large_airport",8.97789,38.799301,7630,"Ethiopia",0.510866236976164,"JIB"
"FIN","RVN","Rovaniemi Airport","FI","medium_airport",66.564796447754,25.830400466919,642,"Finland",0.443047195634638,"KTT"
"FIN","OUL","Oulu Airport","FI","medium_airport",64.930099,25.354601,47,"Finland",0.443047195634638,"KAJ"
"FIN","KUO","Kuopio Airport","FI","medium_airport",63.007099,27.7978,323,"Finland",0.443047195634638,"JOE"
"FIN","JOE","Joensuu Airport","FI","medium_airport",62.658815,29.619398,398,"Finland",0.443047195634638,"KUO"
"FIN","TKU","Turku Airport","FI","medium_airport",60.514099,22.2628,161,"Finland",0.443047195634638,"HEL"
"FIN","KAO","Kuusamo Airport","FI","medium_airport",65.987602,29.239401,866,"Finland",0.443047195634638,"RVN"
"FIN","KTT","Kittilä Airport","FI","medium_airport",67.700996398926,24.846799850464,644,"Finland",0.443047195634638,"RVN"
"FIN","KAJ","Kajaani Airport","FI","medium_airport",64.2855,27.6924,483,"Finland",0.443047195634638,"OUL"
"FIN","HEL","Helsinki Vantaa Airport","FI","large_airport",60.318363,24.963341,179,"Finland",0.443047195634638,"TLL"
"FIN","VAA","Vaasa Airport","FI","medium_airport",63.050701,21.762199,19,"Finland",0.443047195634638,"UME"
"FRA","TLN","Toulon-Hyères Airport","FR","medium_airport",43.097301,6.14603,7,"France",0.396666626724239,"MRS"
"FRA","FSC","Figari Sud-Corse Airport","FR","medium_airport",41.500599,9.09778,85,"France",0.396666626724239,"AJA"
"FRA","LYS","Lyon Saint-Exupéry Airport","FR","large_airport",45.725996,5.090139,821,"France",0.396666626724239,"GVA"
"FRA","BSL","EuroAirport Basel-Mulhouse-Freiburg","FR","large_airport",47.60068,7.521117,885,"France",0.396666626724239,"ZRH"
"FRA","BIQ","Biarritz-Anglet-Bayonne Airport","FR","medium_airport",43.468333,-1.531111,245,"France",0.396666626724239,"PUF"
"FRA","BIA","Bastia-Poretta Airport","FR","medium_airport",42.5527000427246,9.48373031616211,26,"France",0.396666626724239,"AJA"
"FRA","LBG","Paris-Le Bourget Airport","FR","medium_airport",48.969398,2.44139,218,"France",0.396666626724239,"CDG"
"FRA","LDE","Tarbes-Lourdes-Pyrénées Airport","FR","medium_airport",43.178699,-0.006439,1260,"France",0.396666626724239,"PUF"
"FRA","BOD","Bordeaux-Mérignac Airport","FR","large_airport",44.8283,-0.715556,162,"France",0.396666626724239,"PUF"
"FRA","ORY","Paris-Orly Airport","FR","large_airport",48.72333,2.37944,291,"France",0.396666626724239,"LBG"
"FRA","TLS","Toulouse-Blagnac Airport","FR","large_airport",43.629101,1.36382,499,"France",0.396666626724239,"LDE"
"FRA","LIL","Lille Airport","FR","medium_airport",50.563332,3.086886,157,"France",0.396666626724239,"OST"
"FRA","NTE","Nantes Atlantique Airport","FR","medium_airport",47.153198,-1.61073,90,"France",0.396666626724239,"BOD"
"FRA","MRS","Marseille Provence Airport","FR","large_airport",43.438088,5.2125,74,"France",0.396666626724239,"TLN"
"FRA","CDG","Charles de Gaulle International Airport","FR","large_airport",49.012798,2.55,392,"France",0.396666626724239,"LBG"
"FRA","BVA","Paris-Beauvais Airport","FR","medium_airport",49.454399,2.11278,359,"France",0.396666626724239,"CDG"
"FRA","PUF","Pau Pyrénées Airport","FR","medium_airport",43.380001,-0.418611,616,"France",0.396666626724239,"LDE"
"FRA","NCE","Nice-Côte d'Azur Airport","FR","large_airport",43.658401,7.21587,12,"France",0.396666626724239,"CUF"
"FRA","PGF","Perpignan-Rivesaltes (Llabanère) Airport","FR","medium_airport",42.740398,2.87067,144,"France",0.396666626724239,"GRO"
"FRA","AJA","Ajaccio-Napoléon Bonaparte Airport","FR","medium_airport",41.9235992431641,8.8029203414917,18,"France",0.396666626724239,"FSC"
"FSM","PNI","Pohnpei International Airport","FM","medium_airport",6.98509979248047,158.208999633789,10,"Micronesia (Federated States of)",0.597655873445851,"MJB"
"GAB","POG","Port Gentil Airport","GA","medium_airport",-0.711739003658295,8.75438022613525,13,"Gabon",0.462535934400134,"LBV"
"GAB","MVB","M'Vengue El Hadj Omar Bongo Ondimba International Airport","GA","medium_airport",-1.65615999698639,13.4379997253418,1450,"Gabon",0.462535934400134,"BZV"
"GAB","LBV","Libreville Leon M'ba International Airport","GA","medium_airport",0.458600014448,9.4122800827,39,"Gabon",0.462535934400134,"POG"
"GBR","NQY","Cornwall Airport Newquay","GB","medium_airport",50.440601,-4.99541,390,"United Kingdom",0.389993665812156,"CWL"
"GBR","LBA","Leeds Bradford Airport","GB","medium_airport",53.865898,-1.66057,681,"United Kingdom",0.389993665812156,"MAN"
"GBR","BHX","Birmingham Airport","GB","large_airport",52.453899,-1.74803,327,"United Kingdom",0.389993665812156,"EMA"
"GBR","LTN","London Luton Airport","GB","large_airport",51.874699,-0.368333,526,"United Kingdom",0.389993665812156,"STN"
"GBR","CWL","Cardiff International Airport","GB","medium_airport",51.396702,-3.34333,220,"United Kingdom",0.389993665812156,"BRS"
"GBR","LPL","Liverpool John Lennon Airport","GB","medium_airport",53.333599,-2.84972,80,"United Kingdom",0.389993665812156,"MAN"
"GBR","OXF","London Oxford Airport","GB","medium_airport",51.836899,-1.32,270,"United Kingdom",0.389993665812156,"GLO"
"GBR","NCL","Newcastle International Airport","GB","medium_airport",55.037958,-1.689577,266,"United Kingdom",0.389993665812156,"LBA"
"GBR","BOH","Bournemouth Airport","GB","medium_airport",50.780483,-1.839576,38,"United Kingdom",0.389993665812156,"SOU"
"GBR","BFS","Belfast International Airport","GB","large_airport",54.6575012207,-6.21582984924,268,"United Kingdom",0.389993665812156,"BHD"
"GBR","SOU","Southampton Airport","GB","medium_airport",50.950298,-1.3568,44,"United Kingdom",0.389993665812156,"BOH"
"GBR","BQH","London Biggin Hill Airport","GB","medium_airport",51.3307991028,0.0324999988079,598,"United Kingdom",0.389993665812156,"LGW"
"GBR","MAN","Manchester Airport","GB","large_airport",53.349375,-2.279521,257,"United Kingdom",0.389993665812156,"LPL"
"GBR","FAB","Farnborough Airport","GB","medium_airport",51.275799,-0.776333,238,"United Kingdom",0.389993665812156,"LHR"
"GBR","PIK","Glasgow Prestwick Airport","GB","medium_airport",55.502003,-4.587019,65,"United Kingdom",0.389993665812156,"GLA"
"GBR","ABZ","Aberdeen International Airport","GB","medium_airport",57.2019,-2.19778,215,"United Kingdom",0.389993665812156,"EDI"
"GBR","LHR","London Heathrow Airport","GB","large_airport",51.4706,-0.461941,83,"United Kingdom",0.389993665812156,"FAB"
"GBR","BLK","Blackpool Airport","GB","medium_airport",53.771702,-3.02861,34,"United Kingdom",0.389993665812156,"LPL"
"GBR","EDI","Edinburgh Airport","GB","large_airport",55.950145,-3.372288,135,"United Kingdom",0.389993665812156,"GLA"
"GBR","BRS","Bristol Airport","GB","medium_airport",51.382702,-2.71909,622,"United Kingdom",0.389993665812156,"CWL"
"GBR","BHD","George Best Belfast City Airport","GB","medium_airport",54.618099,-5.8725,15,"United Kingdom",0.389993665812156,"BFS"
"GBR","GLO","Gloucestershire Airport","GB","medium_airport",51.8941993713379,-2.16722011566162,101,"United Kingdom",0.389993665812156,"OXF"
"GBR","GLA","Glasgow Airport","GB","large_airport",55.871899,-4.43306,26,"United Kingdom",0.389993665812156,"PIK"
"GBR","LGW","London Gatwick Airport","GB","large_airport",51.148771,-0.192089,202,"United Kingdom",0.389993665812156,"BQH"
"GBR","STN","London Stansted Airport","GB","large_airport",51.884998,0.235,348,"United Kingdom",0.389993665812156,"LTN"
"GBR","EMA","East Midlands Airport","GB","medium_airport",52.8311,-1.32806,306,"United Kingdom",0.389993665812156,"BHX"
"GEO","BUS","Batumi International Airport","GE","medium_airport",41.610298,41.599701,105,"Georgia",0.405797569441947,"KUT"
"GEO","KUT","David the Builder Kutaisi International Airport","GE","medium_airport",42.176768,42.482393,223,"Georgia",0.405797569441947,"BUS"
"GEO","TBS","Tbilisi International Airport","GE","large_airport",41.669201,44.9547,1624,"Georgia",0.405797569441947,"LWN"
"GGY","ACI","Alderney Airport","GG","medium_airport",49.706104,-2.21472,290,"Guernsey",0.389993665812156,"BOH"
"GGY","GCI","Guernsey Airport","GG","medium_airport",49.435001,-2.60197,336,"Guernsey",0.389993665812156,"BOH"
"GHA","TKD","Takoradi Airport","GH","medium_airport",4.8960599899292,-1.77476000785828,21,"Ghana",0.444292597895036,"ACC"
"GHA","KMS","Kumasi Airport","GH","medium_airport",6.71456003189087,-1.59081995487213,942,"Ghana",0.444292597895036,"ACC"
"GHA","ACC","Kotoka International Airport","GH","large_airport",5.60518980026245,-0.166786000132561,205,"Ghana",0.444292597895036,"LFW"
"GHA","TML","Tamale Airport","GH","medium_airport",9.55718994140625,-0.863214015960693,553,"Ghana",0.444292597895036,"OUA"
"GIN","CKY","Conakry International Airport","GN","medium_airport",9.57689,-13.612,72,"Guinea",0.435558777595587,"FNA"
"GMB","BJL","Banjul International Airport","GM","large_airport",13.338,-16.652201,95,"Gambia",0.474356283492874,"DSS"
"GNB","OXB","Osvaldo Vieira International Airport","GW","medium_airport",11.8948001861572,-15.6536998748779,129,"Guinea-Bissau",0.504926610720525,"BJL"
"GNQ","BSG","Bata Airport","GQ","medium_airport",1.90547,9.80568,13,"Equatorial Guinea",0.444870690086563,"LBV"
"GNQ","SSG","Malabo Airport","GQ","medium_airport",3.75527000427246,8.70872020721436,76,"Equatorial Guinea",0.444870690086563,"DLA"
"GRC","EFL","Kefallinia Airport","GR","medium_airport",38.1200981140137,20.5004997253418,59,"Greece",0.424646264524947,"ZTH"
"GRC","PVK","Aktion National Airport","GR","medium_airport",38.925499,20.765301,11,"Greece",0.424646264524947,"IOA"
"GRC","ATH","Athens Eleftherios Venizelos International Airport","GR","large_airport",37.936401,23.9445,308,"Greece",0.424646264524947,"JMK"
"GRC","JSI","Skiathos Island National Airport","GR","medium_airport",39.177101,23.5037,54,"Greece",0.424646264524947,"ATH"
"GRC","JMK","Mykonos Island National Airport","GR","medium_airport",37.435101,25.348101,405,"Greece",0.424646264524947,"MLO"
"GRC","AXD","Alexandroupoli Democritus Airport","GR","medium_airport",40.8559,25.956301,24,"Greece",0.424646264524947,"CKZ"
"GRC","CHQ","Chania International Airport","GR","medium_airport",35.5317,24.1497,490,"Greece",0.424646264524947,"HER"
"GRC","KIT","Kithira Airport","GR","small_airport",36.2742996216,23.0170001984,1045,"Greece",0.424646264524947,"CHQ"
"GRC","SMI","Samos Airport","GR","medium_airport",37.689999,26.911699,19,"Greece",0.424646264524947,"ADB"
"GRC","MLO","Milos Airport","GR","small_airport",36.696899,24.4769,10,"Greece",0.424646264524947,"JTR"
"GRC","CFU","Corfu Ioannis Kapodistrias International Airport","GR","medium_airport",39.601898,19.911699,6,"Greece",0.424646264524947,"IOA"
"GRC","MJT","Mytilene International Airport","GR","medium_airport",39.057272,26.598887,60,"Greece",0.424646264524947,"JKH"
"GRC","LXS","Limnos Airport","GR","small_airport",39.917098999,25.2362995148,14,"Greece",0.424646264524947,"CKZ"
"GRC","KGS","Kos Airport","GR","medium_airport",36.794523,27.09115,412,"Greece",0.424646264524947,"BJV"
"GRC","RHO","Diagoras Airport","GR","medium_airport",36.405399,28.086201,17,"Greece",0.424646264524947,"DLM"
"GRC","IOA","Ioannina King Pyrrhus National Airport","GR","medium_airport",39.6964,20.8225,1558,"Greece",0.424646264524947,"CFU"
"GRC","KVA","Kavala Alexander the Great International Airport","GR","medium_airport",40.9133,24.6192,18,"Greece",0.424646264524947,"AXD"
"GRC","ZTH","Zakynthos International Airport Dionysios Solomos","GR","medium_airport",37.7509,20.8843,12,"Greece",0.424646264524947,"EFL"
"GRC","JKH","Chios Island National Airport","GR","medium_airport",38.3432006835938,26.1406002044678,15,"Greece",0.424646264524947,"MJT"
"GRC","HER","Heraklion International Nikos Kazantzakis Airport","GR","large_airport",35.339699,25.1803,115,"Greece",0.424646264524947,"CHQ"
"GRC","SKG","Thessaloniki Macedonia International Airport","GR","large_airport",40.51928,22.970009,22,"Greece",0.424646264524947,"KVA"
"GRC","JTR","Santorini Airport","GR","medium_airport",36.3992004394531,25.4792995452881,127,"Greece",0.424646264524947,"MLO"
"GRD","GND","Maurice Bishop International Airport","GD","medium_airport",12.0042,-61.786201,41,"Grenada",0.381918384296782,"SLU"
"GRL","JEG","Aasiaat Airport","GL","medium_airport",68.721802,-52.784698,74,"Greenland",0.448202503396635,"KEF"
"GRL","UAK","Narsarsuaq Airport","GL","medium_airport",61.1605,-45.425999,112,"Greenland",0.448202503396635,"KEF"
"GRL","GOH","Nuuk Airport","GL","medium_airport",64.191066,-51.67914,283,"Greenland",0.448202503396635,"KEF"
"GRL","JJU","Qaqortoq Heliport","GL","heliport",60.715684,-46.029919,53,"Greenland",0.448202503396635,"KEF"
"GRL","JAV","Ilulissat Airport","GL","medium_airport",69.243202,-51.057098,95,"Greenland",0.448202503396635,"KEF"
"GRL","JSU","Maniitsoq Airport","GL","small_airport",65.412498,-52.9394,91,"Greenland",0.448202503396635,"KEF"
"GRL","SFJ","Kangerlussuaq Airport","GL","medium_airport",67.010446,-50.715294,165,"Greenland",0.448202503396635,"KEF"
"GRL","JHS","Sisimiut Airport","GL","medium_airport",66.951302,-53.729301,33,"Greenland",0.448202503396635,"KEF"
"GTM","GUA","La Aurora Airport","GT","large_airport",14.5833,-90.527496,4952,"Guatemala",0.479281693631528,"SAL"
"GUM","GUM","Antonio B. Won Pat International Airport","GU","large_airport",13.4834,144.796005,298,"Guam",0.597655873445851,"PNI"
"GUY","OGL","Eugene F. Correira International Airport","GY","medium_airport",6.80628,-58.1059,10,"Guyana",0.40391894070208,"GEO"
"GUY","GEO","Cheddi Jagan International Airport","GY","medium_airport",6.49855,-58.254101,95,"Guyana",0.40391894070208,"OGL"
"HKG","HKG","Hong Kong International Airport","HK","large_airport",22.308901,113.915001,28,"Hong Kong SAR China",0.448468640500951,"SZX"
"HND","SAP","Ramón Villeda Morales International Airport","HN","medium_airport",15.4526,-87.923599,91,"Honduras",0.445378109572176,"SAL"
"HRV","ZAD","Zadar Airport","HR","medium_airport",44.094988,15.354879,289,"Croatia",0.403188798536983,"SPU"
"HRV","ZAG","Zagreb Franjo Tuđman International Airport","HR","large_airport",45.742901,16.0688,353,"Croatia",0.403188798536983,"GRZ"
"HRV","PUY","Pula Airport","HR","medium_airport",44.893501,13.9222,274,"Croatia",0.403188798536983,"TRS"
"HRV","SPU","Split Airport","HR","medium_airport",43.538898,16.298,79,"Croatia",0.403188798536983,"ZAD"
"HRV","DBV","Dubrovnik Ruđer Bošković Airport","HR","medium_airport",42.562247,18.265543,527,"Croatia",0.403188798536983,"TIV"
"HTI","PAP","Toussaint Louverture International Airport","HT","large_airport",18.580023,-72.292596,122,"Haiti",0.441219532119359,"SDQ"
"HUN","BUD","Budapest Liszt Ferenc International Airport","HU","large_airport",47.43018,19.262393,495,"Hungary",0.348845460417518,"BTS"
"IDN","CGK","Soekarno-Hatta International Airport","ID","large_airport",-6.1255698204,106.65599823,34,"Indonesia",0.517932425996539,"SIN"
"IDN","DPS","Denpasar I Gusti Ngurah Rai International Airport","ID","large_airport",-8.748409,115.167123,14,"Indonesia",0.517932425996539,"CGK"
"IND","BOM","Chhatrapati Shivaji International Airport","IN","large_airport",19.0886993408,72.8678970337,39,"India",0.571503343454168,"PNQ"
"IND","CCU","Netaji Subhash Chandra Bose International Airport","IN","large_airport",22.654699,88.446701,16,"India",0.571503343454168,"DAC"
"IND","AGX","Agatti Airport","IN","medium_airport",10.8237,72.176003,14,"India",0.571503343454168,"CCJ"
"IND","PNQ","Pune Airport / Lohagaon Air Force Station","IN","medium_airport",18.5821,73.919701,1942,"India",0.571503343454168,"BOM"
"IND","AMD","Sardar Vallabh Bhai Patel International Airport","IN","medium_airport",23.0772,72.634697,189,"India",0.571503343454168,"BOM"
"IND","CCJ","Calicut International Airport","IN","medium_airport",11.1368,75.955299,342,"India",0.571503343454168,"COK"
"IND","BLR","Kempegowda International Airport","IN","large_airport",13.1979,77.706299,3000,"India",0.571503343454168,"MAA"
"IND","BBI","Biju Patnaik Airport","IN","medium_airport",20.2444000244,85.8178024292,138,"India",0.571503343454168,"CCU"
"IND","COK","Cochin International Airport","IN","large_airport",10.151047,76.400838,30,"India",0.571503343454168,"CCJ"
"IND","DEL","Indira Gandhi International Airport","IN","large_airport",28.55563,77.09519,777,"India",0.571503343454168,"LHE"
"IND","TRZ","Tiruchirappalli International Airport","IN","medium_airport",10.766223,78.71774,288,"India",0.571503343454168,"COK"
"IND","GOI","Dabolim Airport","IN","large_airport",15.3808,73.831398,150,"India",0.571503343454168,"PNQ"
"IND","VGA","Vijayawada Airport","IN","medium_airport",16.530399,80.796799,82,"India",0.571503343454168,"HYD"
"IND","MAA","Chennai International Airport","IN","large_airport",12.990005,80.169296,52,"India",0.571503343454168,"BLR"
"IND","HYD","Rajiv Gandhi International Airport","IN","large_airport",17.231318,78.429855,2024,"India",0.571503343454168,"VGA"
"IRL","NOC","Ireland West Knock Airport","IE","medium_airport",53.910301,-8.81849,665,"Ireland",0.410790252820194,"SNN"
"IRL","SNN","Shannon Airport","IE","large_airport",52.702,-8.92482,46,"Ireland",0.410790252820194,"ORK"
"IRL","DUB","Dublin Airport","IE","large_airport",53.428713,-6.262121,242,"Ireland",0.410790252820194,"BHD"
"IRL","ORK","Cork Airport","IE","medium_airport",51.841301,-8.49111,502,"Ireland",0.410790252820194,"SNN"
"IRN","TBZ","Tabriz International Airport","IR","medium_airport",38.1339,46.235001,4459,"Iran",0.346797015643766,"EVN"
"IRN","IKA","Imam Khomeini International Airport","IR","large_airport",35.4160995483398,51.1521987915039,3305,"Iran",0.346797015643766,"TBZ"
"IRQ","EBL","Erbil International Airport","IQ","medium_airport",36.2375984191895,43.9631996154785,1341,"Iraq",0.436592451066318,"TBZ"
"ISL","RKV","Reykjavík Domestic Airport","IS","medium_airport",64.128732,-21.93759,48,"Iceland",0.448202503396635,"KEF"
"ISL","KEF","Keflavik International Airport","IS","large_airport",63.985001,-22.6056,171,"Iceland",0.448202503396635,"RKV"
"ISR","ETM","Ramon International Airport","IL","large_airport",29.727009,35.014116,288,"Israel",0.283785899019191,"SSH"
"ISR","TLV","Ben Gurion International Airport","IL","large_airport",32.011398,34.8867,135,"Israel",0.283785899019191,"AMM"
"ITA","GOA","Genoa Cristoforo Colombo Airport","IT","large_airport",44.412039,8.840732,13,"Italy",0.441073707843616,"CUF"
"ITA","FLR","Florence Airport, Peretola","IT","large_airport",43.808558,11.202822,142,"Italy",0.441073707843616,"PSA"
"ITA","TRN","Turin Airport","IT","large_airport",45.200802,7.64963,989,"Italy",0.441073707843616,"CUF"
"ITA","VCE","Venice Marco Polo Airport","IT","large_airport",45.505299,12.3519,7,"Italy",0.441073707843616,"TSF"
"ITA","BGY","Milan Bergamo Airport / Antonio Locatelli Air Base","IT","large_airport",45.670725,9.709223,782,"Italy",0.441073707843616,"LIN"
"ITA","CUF","Cuneo International Airport","IT","medium_airport",44.547001,7.62322,1267,"Italy",0.441073707843616,"TRN"
"ITA","PEG","Perugia San Francesco d'Assisi – Umbria International Airport","IT","medium_airport",43.095901,12.5132,697,"Italy",0.441073707843616,"AOI"
"ITA","NAP","Naples International Airport","IT","large_airport",40.886002,14.2908,294,"Italy",0.441073707843616,"QSR"
"ITA","PSA","Pisa International Airport","IT","large_airport",43.683899,10.3927,6,"Italy",0.441073707843616,"FLR"
"ITA","MXP","Milan Malpensa International Airport","IT","large_airport",45.6306,8.72811,768,"Italy",0.441073707843616,"LUG"
"ITA","QSR","Salerno Costa d'Amalfi Airport","IT","medium_airport",40.620399,14.9113,123,"Italy",0.441073707843616,"NAP"
"ITA","BRI","Bari Karol Wojtyła International Airport","IT","large_airport",41.138901,16.760599,193,"Italy",0.441073707843616,"BDS"
"ITA","LIN","Milano Linate Airport","IT","medium_airport",45.445099,9.27674,353,"Italy",0.441073707843616,"BGY"
"ITA","CIY","Comiso Airport","IT","medium_airport",36.99583,14.60889,756,"Italy",0.441073707843616,"CTA"
"ITA","CRV","Crotone Sant'Anna Pythagoras Airport","IT","medium_airport",38.9972,17.0802,522,"Italy",0.441073707843616,"SUF"
"ITA","BZO","Bolzano Airport","IT","medium_airport",46.460201,11.3264,789,"Italy",0.441073707843616,"INN"
"ITA","AOI","Marche Airport","IT","medium_airport",43.616299,13.3623,49,"Italy",0.441073707843616,"RMI"
"ITA","CIA","Ciampino–G. B. Pastine International Airport","IT","medium_airport",41.7994,12.5949,427,"Italy",0.441073707843616,"FCO"
"ITA","SUF","Lamezia Terme Sant'Eufemia International Airport","IT","medium_airport",38.905197,16.243762,39,"Italy",0.441073707843616,"CRV"
"ITA","TPS","Vincenzo Florio Airport Trapani-Birgi","IT","medium_airport",37.9114,12.488,25,"Italy",0.441073707843616,"PMO"
"ITA","REG","Reggio Calabria Airport","IT","medium_airport",38.071201,15.6516,96,"Italy",0.441073707843616,"CTA"
"ITA","PMO","Falcone–Borsellino Airport","IT","large_airport",38.175999,13.091,65,"Italy",0.441073707843616,"TPS"
"ITA","OLB","Olbia Costa Smeralda Airport","IT","medium_airport",40.898701,9.51763,37,"Italy",0.441073707843616,"FSC"
"ITA","CAG","Cagliari Elmas Airport","IT","large_airport",39.251499,9.05428,13,"Italy",0.441073707843616,"AHO"
"ITA","CTA","Catania-Fontanarossa Airport","IT","large_airport",37.466801,15.0664,39,"Italy",0.441073707843616,"CIY"
"ITA","BLQ","Bologna Guglielmo Marconi Airport","IT","large_airport",44.5354,11.2887,123,"Italy",0.441073707843616,"FLR"
"ITA","PSR","Abruzzo Airport","IT","medium_airport",42.431702,14.1811,48,"Italy",0.441073707843616,"AOI"
"ITA","FCO","Rome–Fiumicino Leonardo da Vinci International Airport","IT","large_airport",41.804532,12.251998,13,"Italy",0.441073707843616,"CIA"
"ITA","LMP","Lampedusa Airport","IT","medium_airport",35.497898,12.6181,70,"Italy",0.441073707843616,"PNL"
"ITA","PNL","Pantelleria Airport","IT","medium_airport",36.816502,11.9689,628,"Italy",0.441073707843616,"TPS"
"ITA","VRN","Verona Villafranca Valerio Catullo Airport","IT","large_airport",45.394955,10.887303,239,"Italy",0.441073707843616,"BGY"
"ITA","TSF","Treviso Antonio Canova Airport","IT","medium_airport",45.648399,12.1944,59,"Italy",0.441073707843616,"VCE"
"ITA","AHO","Alghero-Fertilia Airport","IT","medium_airport",40.632099,8.29077,87,"Italy",0.441073707843616,"OLB"
"ITA","BDS","Brindisi Airport","IT","large_airport",40.6576,17.947001,47,"Italy",0.441073707843616,"BRI"
"ITA","RMI","Federico Fellini International Airport","IT","medium_airport",44.020302,12.6117,40,"Italy",0.441073707843616,"AOI"
"ITA","TRS","Trieste–Friuli Venezia Giulia Airport","IT","medium_airport",45.827499,13.4722,39,"Italy",0.441073707843616,"VCE"
"JEY","JER","Jersey Airport","JE","medium_airport",49.2079010009766,-2.1955099105835,277,"Jersey",0.389993665812156,"BOH"
"JOR","AMM","Queen Alia International Airport","JO","large_airport",31.7226009369,35.9931983948,2395,"Jordan",0.28853503033662,"TLV"
"JPN","AXT","Akita Airport","JP","medium_airport",39.615601,140.218994,313,"Japan",0.519500569175998,"SYO"
"JPN","FKS","Fukushima Airport","JP","medium_airport",37.2274017333984,140.430999755859,1221,"Japan",0.519500569175998,"SDJ"
"JPN","RIS","Rishiri Airport","JP","medium_airport",45.2420005798,141.186004639,112,"Japan",0.519500569175998,"AKJ"
"JPN","SYO","Shonai Airport","JP","medium_airport",38.812199,139.787003,86,"Japan",0.519500569175998,"GAJ"
"JPN","NRT","Narita International Airport","JP","large_airport",35.764702,140.386002,141,"Japan",0.519500569175998,"IBR"
"JPN","OIR","Okushiri Airport","JP","medium_airport",42.0717010498,139.432998657,161,"Japan",0.519500569175998,"HKD"
"JPN","AKJ","Asahikawa Airport","JP","medium_airport",43.670799,142.447006,721,"Japan",0.519500569175998,"OKD"
"JPN","SHB","Nakashibetsu Airport","JP","medium_airport",43.5774993896,144.960006714,234,"Japan",0.519500569175998,"MMB"
"JPN","UKB","Kobe Airport","JP","medium_airport",34.6328010559082,135.223999023438,22,"Japan",0.519500569175998,"KIX"
"JPN","MMJ","Shinshu-Matsumoto Airport","JP","medium_airport",36.166801,137.923004,2182,"Japan",0.519500569175998,"TOY"
"JPN","TSJ","Tsushima Airport","JP","medium_airport",34.2849006653,129.330993652,213,"Japan",0.519500569175998,"IKI"
"JPN","UBJ","Yamaguchi Ube Airport","JP","medium_airport",33.9300003052,131.279006958,23,"Japan",0.519500569175998,"KKJ"
"JPN","MMB","Memanbetsu Airport","JP","medium_airport",43.8805999756,144.164001465,135,"Japan",0.519500569175998,"SHB"
"JPN","OBO","Tokachi-Obihiro Airport","JP","medium_airport",42.7332992554,143.216995239,505,"Japan",0.519500569175998,"KUH"
"JPN","KUM","Yakushima Airport","JP","medium_airport",30.385599,130.658997,124,"Japan",0.519500569175998,"KOJ"
"JPN","KIX","Kansai International Airport","JP","large_airport",34.427299,135.244003,26,"Japan",0.519500569175998,"UKB"
"JPN","GAJ","Yamagata Airport","JP","medium_airport",38.4119,140.371002,353,"Japan",0.519500569175998,"SDJ"
"JPN","KKJ","Kitakyushu Airport","JP","medium_airport",33.845901,131.035004,21,"Japan",0.519500569175998,"UBJ"
"JPN","HSG","Saga Airport","JP","medium_airport",33.1497001648,130.302001953,6,"Japan",0.519500569175998,"NGS"
"JPN","IBR","Ibaraki Airport / JASDF Hyakuri Air Base","JP","medium_airport",36.181099,140.414993,105,"Japan",0.519500569175998,"NRT"
"JPN","MSJ","Misawa Airport / Misawa Air Base","JP","medium_airport",40.703201,141.367996,119,"Japan",0.519500569175998,"AOJ"
"JPN","KIJ","Niigata Airport","JP","medium_airport",37.9558982849,139.121002197,29,"Japan",0.519500569175998,"SYO"
"JPN","SDJ","Sendai Airport","JP","large_airport",38.139702,140.917007,15,"Japan",0.519500569175998,"GAJ"
"JPN","CTS","New Chitose Airport","JP","large_airport",42.7752,141.692001,82,"Japan",0.519500569175998,"OKD"
"JPN","HKD","Hakodate Airport","JP","medium_airport",41.77,140.822006,151,"Japan",0.519500569175998,"AOJ"
"JPN","FUK","Fukuoka Airport","JP","large_airport",33.5858993530273,130.45100402832,32,"Japan",0.519500569175998,"HSG"
"JPN","OKD","Sapporo Okadama Airport","JP","medium_airport",43.117447,141.38134,25,"Japan",0.519500569175998,"CTS"
"JPN","AXJ","Amakusa Airport","JP","small_airport",32.482498,130.158997,340,"Japan",0.519500569175998,"NGS"
"JPN","IKI","Iki Airport","JP","medium_airport",33.7490005493,129.785003662,41,"Japan",0.519500569175998,"FUK"
"JPN","OIT","Oita Airport","JP","medium_airport",33.4794006348,131.736999512,19,"Japan",0.519500569175998,"UBJ"
"JPN","TOY","Toyama Airport","JP","medium_airport",36.6483001708984,137.188003540039,95,"Japan",0.519500569175998,"NTQ"
"JPN","NTQ","Noto Satoyama Airport","JP","medium_airport",37.293098,136.962006,718,"Japan",0.519500569175998,"TOY"
"JPN","HIJ","Hiroshima Airport","JP","medium_airport",34.4361,132.919006,1088,"Japan",0.519500569175998,"IWK"
"JPN","KMJ","Kumamoto Airport","JP","medium_airport",32.8372993469238,130.854995727539,642,"Japan",0.519500569175998,"HSG"
"JPN","NGS","Nagasaki Airport","JP","medium_airport",32.916901,129.914001,15,"Japan",0.519500569175998,"HSG"
"JPN","NGO","Chubu Centrair International Airport","JP","large_airport",34.858398,136.804993,15,"Japan",0.519500569175998,"NKM"
"JPN","IWK","Iwakuni Kintaikyo Airport / Marine Corps Air Station Iwakuni","JP","medium_airport",34.146333,132.247238,7,"Japan",0.519500569175998,"MYJ"
"JPN","HND","Tokyo Haneda International Airport","JP","large_airport",35.552299,139.779999,35,"Japan",0.519500569175998,"NRT"
"JPN","KUH","Kushiro Airport","JP","medium_airport",43.041,144.192993,327,"Japan",0.519500569175998,"SHB"
"JPN","TKS","Tokushima Awaodori Airport / JMSDF Tokushima Air Base","JP","medium_airport",34.132801,134.606995,26,"Japan",0.519500569175998,"TAK"
"JPN","TAK","Takamatsu Airport","JP","medium_airport",34.2141990662,134.01600647,607,"Japan",0.519500569175998,"TKS"
"JPN","AOJ","Aomori Airport","JP","medium_airport",40.7346992492676,140.690994262695,664,"Japan",0.519500569175998,"MSJ"
"JPN","OKI","Oki Global Geopark Airport","JP","medium_airport",36.178388,133.323566,311,"Japan",0.519500569175998,"YGJ"
"JPN","FSZ","Mount Fuji Shizuoka Airport","JP","medium_airport",34.796043,138.187752,433,"Japan",0.519500569175998,"NKM"
"JPN","YGJ","Yonago Kitaro Airport / JASDF Miho Air Base","JP","medium_airport",35.492199,133.235992,20,"Japan",0.519500569175998,"IZO"
"JPN","OKA","Naha Airport / JASDF Naha Air Base","JP","large_airport",26.195801,127.646004,12,"Japan",0.519500569175998,"UEO"
"JPN","OKJ","Okayama Momotaro Airport","JP","medium_airport",34.756901,133.854996,806,"Japan",0.519500569175998,"TAK"
"JPN","IZO","Izumo Enmusubi Airport","JP","medium_airport",35.413601,132.889999,15,"Japan",0.519500569175998,"YGJ"
"JPN","TTJ","Tottori Sand Dunes Conan Airport","JP","medium_airport",35.530102,134.167007,65,"Japan",0.519500569175998,"YGJ"
"JPN","KTD","Kitadaito Airport","JP","medium_airport",25.9447002411,131.32699585,80,"Japan",0.519500569175998,"MMD"
"JPN","KCZ","Kochi Ryoma Airport","JP","medium_airport",33.546101,133.669006,42,"Japan",0.519500569175998,"TAK"
"JPN","FUJ","Fukue Airport","JP","medium_airport",32.666302,128.832993,273,"Japan",0.519500569175998,"NGS"
"JPN","KMQ","Komatsu Airport / JASDF Komatsu Air Base","JP","medium_airport",36.3946,136.406998,36,"Japan",0.519500569175998,"TOY"
"JPN","KOJ","Kagoshima Airport","JP","large_airport",31.8034,130.718994,906,"Japan",0.519500569175998,"KMI"
"JPN","KMI","Miyazaki Airport","JP","medium_airport",31.877199173,131.449005127,20,"Japan",0.519500569175998,"KOJ"
"JPN","NKM","Nagoya Airport / JASDF Komaki Air Base","JP","medium_airport",35.255759,136.924095,52,"Japan",0.519500569175998,"NGO"
"JPN","MMD","Minamidaito Airport","JP","medium_airport",25.8465,131.263,167,"Japan",0.519500569175998,"KTD"
"JPN","MMY","Miyako Airport","JP","medium_airport",24.782801,125.294998,150,"Japan",0.519500569175998,"SHI"
"JPN","UEO","Kumejima Airport","JP","medium_airport",26.363445,126.71384,23,"Japan",0.519500569175998,"OKA"
"JPN","ISG","New Ishigaki Airport","JP","medium_airport",24.396389,124.245,102,"Japan",0.519500569175998,"SHI"
"JPN","MYJ","Matsuyama Airport","JP","medium_airport",33.8272018432617,132.699996948242,25,"Japan",0.519500569175998,"IWK"
"JPN","ITM","Osaka International Airport","JP","large_airport",34.7855,135.438004,50,"Japan",0.519500569175998,"UKB"
"JPN","SHI","Shimojishima Airport","JP","medium_airport",24.8267,125.144997,54,"Japan",0.519500569175998,"MMY"
"JPN","ASJ","Amami Airport","JP","medium_airport",28.4305992126465,129.712997436523,27,"Japan",0.519500569175998,"TKN"
"JPN","TKN","Tokunoshima Airport","JP","medium_airport",27.836382,128.881356,17,"Japan",0.519500569175998,"OKE"
"JPN","OGN","Yonaguni Airport","JP","medium_airport",24.467298,122.979827,70,"Japan",0.519500569175998,"ISG"
"JPN","OKE","Okinoerabu Airport","JP","medium_airport",27.431604,128.705564,101,"Japan",0.519500569175998,"TKN"
"KAZ","NQZ","Nursultan Nazarbayev International Airport","KZ","large_airport",51.027035,71.467094,1165,"Kazakhstan",0.350704680830933,"OMS"
"KAZ","UKK","Ust-Kamenogorsk Airport","KZ","medium_airport",50.036571,82.493477,939,"Kazakhstan",0.350704680830933,"RGK"
"KAZ","ALA","Almaty International Airport","KZ","large_airport",43.354267,77.042828,2234,"Kazakhstan",0.350704680830933,"FRU"
"KEN","MBA","Moi International Airport","KE","large_airport",-4.03483,39.5942,200,"Kenya",0.508317476778128,"TGT"
"KEN","NBO","Jomo Kenyatta International Airport","KE","large_airport",-1.31923997402,36.9277992249,5330,"Kenya",0.508317476778128,"ARK"
"KGZ","OSS","Osh Airport","KG","medium_airport",40.609001,72.793297,2927,"Kyrgyzstan",0.325863608353138,"FEG"
"KGZ","FRU","Manas International Airport","KG","large_airport",43.0612983704,74.4776000977,2058,"Kyrgyzstan",0.325863608353138,"ALA"
"KHM","PNH","Phnom Penh International Airport","KH","large_airport",11.5466,104.844002,40,"Cambodia",0.393904762199011,"PQC"
"KIR","TRW","Bonriki International Airport","KI","medium_airport",1.38164,173.147003,9,"Kiribati",0.618499883404277,"MAJ"
"KNA","SKB","Robert L. Bradshaw International Airport","KN","medium_airport",17.3111991882324,-62.7187004089355,170,"St. Kitts & Nevis",0.434583075941399,"NEV"
"KNA","NEV","Vance W. Amory International Airport","KN","medium_airport",17.2056999206543,-62.589900970459,14,"St. Kitts & Nevis",0.434583075941399,"SKB"
"KOR","CJU","Jeju International Airport","KR","large_airport",33.512058,126.492548,118,"South Korea",0.494061457637146,"FUJ"
"KOR","CJJ","Cheongju International Airport/Cheongju Air Base (K-59/G-513)","KR","medium_airport",36.717008,127.498741,191,"South Korea",0.494061457637146,"ICN"
"KOR","ICN","Incheon International Airport","KR","large_airport",37.469101,126.450996,23,"South Korea",0.494061457637146,"CJJ"
"KOR","PUS","Gimhae International Airport","KR","large_airport",35.179501,128.938004,6,"South Korea",0.494061457637146,"TAE"
"KOR","TAE","Daegu Airport","KR","medium_airport",35.896872,128.65531,116,"South Korea",0.494061457637146,"PUS"
"KWT","KWI","Kuwait International Airport","KW","large_airport",29.226601,47.968899,206,"Kuwait",0.397463157850205,"DMM"
"LAO","LPQ","Luang Phabang International Airport","LA","medium_airport",19.8973007202148,102.161003112793,955,"Laos",0.393776819969432,"NNT"
"LAO","VTE","Wattay International Airport","LA","medium_airport",17.9883003235,102.56300354,564,"Laos",0.393776819969432,"UTH"
"LBN","BEY","Beirut Rafic Hariri International Airport","LB","large_airport",33.8208999633789,35.4883995056152,87,"Lebanon",0.332050982243598,"LCA"
"LBR","ROB","Roberts International Airport","LR","large_airport",6.23379,-10.3623,31,"Liberia",0.488170925525536,"FNA"
"LBY","MJI","Mitiga International Airport","LY","large_airport",32.89177,13.287878,36,"Libya",0.28627266157189,"DJE"
"LBY","BEN","Benina International Airport","LY","medium_airport",32.096802,20.269501,433,"Libya",0.28627266157189,"CHQ"
"LCA","SLU","George F. L. Charles Airport","LC","medium_airport",14.0202,-60.992901,22,"St. Lucia",0.386044850541362,"DOM"
"LKA","CMB","Bandaranaike International Colombo Airport","LK","large_airport",7.1807599067688,79.8841018676758,30,"Sri Lanka",0.499465542027125,"TRZ"
"LSO","MSU","Moshoeshoe I International Airport","LS","medium_airport",-29.462299,27.5525,5348,"Lesotho",0.36480252582649,"BFN"
"LTU","PLQ","Palanga International Airport","LT","medium_airport",55.973201751709,21.093900680542,33,"Lithuania",0.364755166263615,"KGD"
"LTU","VNO","Vilnius International Airport","LT","large_airport",54.634102,25.285801,648,"Lithuania",0.364755166263615,"KUN"
"LTU","KUN","Kaunas International Airport","LT","medium_airport",54.9639015197754,24.0848007202148,256,"Lithuania",0.364755166263615,"VNO"
"LUX","LUX","Luxembourg-Findel International Airport","LU","large_airport",49.6233333,6.2044444,1234,"Luxembourg",0.281654691548273,"SCN"
"LVA","RIX","Riga International Airport","LV","large_airport",56.923599,23.9711,36,"Latvia",0.374414731005748,"PLQ"
"MAC","MFM","Macau International Airport","MO","large_airport",22.149599,113.592003,20,"Macao SAR China",0.448468640500951,"ZUH"
"MAR","GLN","Guelmim Airport","MA","small_airport",29.026699,-10.0503,984,"Morocco",0.338302258818993,"TTA"
"MAR","OZZ","Ouarzazate Airport","MA","medium_airport",30.9391002655,-6.90943002701,3782,"Morocco",0.338302258818993,"RAK"
"MAR","OUD","Oujda Angads Airport","MA","medium_airport",34.789558,-1.926041,1535,"Morocco",0.338302258818993,"NDR"
"MAR","TNG","Tangier Ibn Battuta Airport","MA","large_airport",35.731741,-5.921459,62,"Morocco",0.338302258818993,"AGP"
"MAR","AGA","Al Massira Airport","MA","large_airport",30.322478,-9.412003,250,"Morocco",0.338302258818993,"GLN"
"MAR","AHU","Cherif Al Idrissi Airport","MA","medium_airport",35.177101,-3.83952,95,"Morocco",0.338302258818993,"NDR"
"MAR","NDR","Nador Al Aaroui International Airport","MA","medium_airport",34.9888,-3.02821,574,"Morocco",0.338302258818993,"AHU"
"MAR","FEZ","Fes Saïss International Airport","MA","large_airport",33.927299,-4.97796,1900,"Morocco",0.338302258818993,"RBA"
"MAR","RBA","Rabat-Salé Airport","MA","large_airport",34.051498,-6.75152,276,"Morocco",0.338302258818993,"CMN"
"MAR","RAK","Menara Airport","MA","large_airport",31.606899,-8.0363,1545,"Morocco",0.338302258818993,"OZZ"
"MAR","ERH","Moulay Ali Cherif Airport","MA","medium_airport",31.9475002289,-4.39833021164,3428,"Morocco",0.338302258818993,"FEZ"
"MAR","TTA","Tan Tan Airport","MA","medium_airport",28.4482002258301,-11.1612997055054,653,"Morocco",0.338302258818993,"GLN"
"MAR","CMN","Mohammed V International Airport","MA","large_airport",33.3675,-7.58997,656,"Morocco",0.338302258818993,"RBA"
"MDG","DIE","Arrachart Airport","MG","medium_airport",-12.3494,49.291698,374,"Madagascar",0.499645177597356,"NOS"
"MDG","FTU","Tôlanaro Airport","MG","medium_airport",-25.038099,46.9561,29,"Madagascar",0.499645177597356,"TLE"
"MDG","NOS","Fascene Airport","MG","medium_airport",-13.3121,48.3148,36,"Madagascar",0.499645177597356,"DIE"
"MDG","MJN","Amborovy Airport","MG","medium_airport",-15.666842,46.351233,87,"Madagascar",0.499645177597356,"NOS"
"MDG","TNR","Ivato Airport","MG","large_airport",-18.7969,47.478802,4198,"Madagascar",0.499645177597356,"MJN"
"MDG","TLE","Toliara Airport","MG","medium_airport",-23.3834,43.7285,29,"Madagascar",0.499645177597356,"FTU"
"MDV","HAQ","Hanimaadhoo Airport","MV","medium_airport",6.74422979354858,73.1705017089844,4,"Maldives",0.722357733729787,"IFU"
"MDV","GAN","Gan International Airport","MV","medium_airport",-0.692694,73.151557,6,"Maldives",0.722357733729787,"GKK"
"MDV","GKK","Kooddoo Airport","MV","small_airport",0.7324,73.4336,29,"Maldives",0.722357733729787,"KDO"
"MDV","KDO","Kadhdhoo Airport","MV","medium_airport",1.85916996002197,73.5218963623047,4,"Maldives",0.722357733729787,"GKK"
"MDV","DRV","Dharavandhoo Airport","MV","small_airport",5.1561,73.1302,6,"Maldives",0.722357733729787,"IFU"
"MDV","IFU","Ifuru Airport","MV","small_airport",5.7083,73.025,20,"Maldives",0.722357733729787,"DRV"
"MDV","MLE","Malé International Airport","MV","large_airport",4.19183015823364,73.5290985107422,6,"Maldives",0.722357733729787,"DRV"
"MEX","CUN","Cancún International Airport","MX","large_airport",21.039444,-86.874304,22,"Mexico",0.487395913866536,"HAV"
"MEX","MEX","Benito Juárez International Airport","MX","large_airport",19.435137,-99.071328,7316,"Mexico",0.487395913866536,"GUA"
"MHL","MJB","Mejit Atoll Airport","MH","small_airport",10.283302,170.869,5,"Marshall Islands",0.586987166809118,"MAJ"
"MHL","MAJ","Marshall Islands International Airport","MH","medium_airport",7.06476,171.272003,6,"Marshall Islands",0.586987166809118,"MJB"
"MKD","SKP","Skopje International Airport","MK","large_airport",41.958087,21.622581,781,"North Macedonia",0.314798622333691,"INI"
"MLI","BKO","Modibo Keita International Airport","ML","large_airport",12.5335,-7.94994,1247,"Mali",0.525089258062733,"OUA"
"MLT","MLA","Malta International Airport","MT","large_airport",35.857498,14.4775,300,"Malta",0.309652837422004,"CIY"
"MMR","MGZ","Myeik Airport","MM","medium_airport",12.4398002624512,98.6214981079102,75,"Myanmar (Burma)",0.56512723347212,"HHQ"
"MMR","MDL","Mandalay International Airport","MM","large_airport",21.7021999359131,95.977897644043,300,"Myanmar (Burma)",0.56512723347212,"NYU"
"MMR","RGN","Yangon International Airport","MM","large_airport",16.9073009491,96.1332015991,109,"Myanmar (Burma)",0.56512723347212,"MNU"
"MMR","MYT","Myitkyina Airport","MM","medium_airport",25.3836,97.351898,475,"Myanmar (Burma)",0.56512723347212,"DLU"
"MMR","KAW","Kawthoung Airport","MM","medium_airport",10.0493001937866,98.5380020141602,180,"Myanmar (Burma)",0.56512723347212,"CJM"
"MMR","NYU","Bagan Airport","MM","small_airport",21.1788005828857,94.9301986694336,312,"Myanmar (Burma)",0.56512723347212,"MDL"
"MMR","TVY","Dawei Airport","MM","medium_airport",14.1038999557495,98.2035980224609,84,"Myanmar (Burma)",0.56512723347212,"MGZ"
"MMR","HEH","Heho Airport","MM","small_airport",20.74714,96.792029,3858,"Myanmar (Burma)",0.56512723347212,"MDL"
"MMR","KET","Kengtung Airport","MM","medium_airport",21.3015995025635,99.6360015869141,2798,"Myanmar (Burma)",0.56512723347212,"THL"
"MMR","KYP","Kyaukpyu Airport","MM","medium_airport",19.426399230957,93.534797668457,20,"Myanmar (Burma)",0.56512723347212,"AKY"
"MMR","AKY","Sittwe Airport","MM","medium_airport",20.133165,92.870693,27,"Myanmar (Burma)",0.56512723347212,"KYP"
"MMR","THL","Tachileik Airport","MM","medium_airport",20.4838008880615,99.9354019165039,1280,"Myanmar (Burma)",0.56512723347212,"CEI"
"MMR","MNU","Mawlamyine Airport","MM","small_airport",16.4447002410889,97.6606979370117,52,"Myanmar (Burma)",0.56512723347212,"RGN"
"MNE","TGD","Podgorica Airport / Podgorica Golubovci Airbase","ME","large_airport",42.359402,19.2519,141,"Montenegro",0.329459112952334,"TIV"
"MNE","TIV","Tivat Airport","ME","medium_airport",42.4047012329102,18.7233009338379,20,"Montenegro",0.329459112952334,"DBV"
"MNG","UBN","Ulaanbaatar Chinggis Khaan International Airport","MN","large_airport",47.646916,106.819833,4482,"Mongolia",0.267115029166043,"UUD"
"MOZ","APL","Nampula Airport","MZ","medium_airport",-15.1056003570557,39.2817993164062,1444,"Mozambique",0.43349829696195,"POL"
"MOZ","BEW","Beira Airport","MZ","medium_airport",-19.7964,34.9076,33,"Mozambique",0.43349829696195,"VNX"
"MOZ","VNX","Vilankulo Airport","MZ","medium_airport",-22.0184001922607,35.3133010864258,46,"Mozambique",0.43349829696195,"INH"
"MOZ","UEL","Quelimane Airport","MZ","medium_airport",-17.8554992675781,36.8690986633301,36,"Mozambique",0.43349829696195,"BEW"
"MOZ","TET","Chingozi Airport","MZ","medium_airport",-16.1047992706299,33.6402015686035,525,"Mozambique",0.43349829696195,"HRE"
"MOZ","POL","Pemba Airport","MZ","medium_airport",-12.993302,40.524867,331,"Mozambique",0.43349829696195,"APL"
"MOZ","MPM","Maputo Airport","MZ","large_airport",-25.920799,32.572601,145,"Mozambique",0.43349829696195,"MQP"
"MOZ","INH","Inhambane Airport","MZ","medium_airport",-23.8764,35.408501,30,"Mozambique",0.43349829696195,"VNX"
"MRT","NKC","Nouakchott–Oumtounsy International Airport","MR","large_airport",18.31,-15.969722,9,"Mauritania",0.363758416466013,"DSS"
"MSR","MNI","John A. Osborne Airport","MS","medium_airport",16.791401,-62.193298,550,"Montserrat",0.47158984760727,"ANU"
"MUS","MRU","Sir Seewoosagur Ramgoolam International Airport","MU","large_airport",-20.430201,57.683601,186,"Mauritius",0.484726712434878,"RRG"
"MUS","RRG","Sir Charles Gaetan Duval Airport","MU","medium_airport",-19.7577,63.361,95,"Mauritius",0.484726712434878,"MRU"
"MYS","PEN","Penang International Airport","MY","medium_airport",5.29714012145996,100.277000427246,11,"Malaysia",0.442959989356779,"HDY"
"MYS","KUL","Kuala Lumpur International Airport","MY","large_airport",2.74558,101.709999,69,"Malaysia",0.442959989356779,"SIN"
"MYT","DZA","Dzaoudzi Pamandzi International Airport","YT","medium_airport",-12.809319,45.281815,23,"Mayotte",0.470871413538449,"HAH"
"NCL","LIF","Lifou Airport","NC","medium_airport",-20.774563,167.239328,92,"New Caledonia",0.486688943340768,"TAH"
"NCL","GEA","Nouméa Magenta Airport","NC","medium_airport",-22.25812,166.472783,10,"New Caledonia",0.486688943340768,"TAH"
"NCL","NOU","La Tontouta International Airport","NC","medium_airport",-22.014601,166.212997,52,"New Caledonia",0.486688943340768,"TAH"
"NER","NIM","Diori Hamani International Airport","NE","large_airport",13.4815,2.18361,732,"Niger",0.63269676238318,"OUA"
"NGA","ABV","Nnamdi Azikiwe International Airport","NG","large_airport",9.00679,7.26317,1123,"Nigeria",0.454871388841821,"LOS"
"NGA","LOS","Murtala Muhammed International Airport","NG","large_airport",6.57737,3.32116,135,"Nigeria",0.454871388841821,"COO"
"NIC","MGA","Augusto C. Sandino (Managua) International Airport","NI","medium_airport",12.1415004730225,-86.1681976318359,194,"Nicaragua",0.493192867805386,"SJO"
"NLD","AMS","Amsterdam Airport Schiphol","NL","large_airport",52.308601,4.76389,-11,"Netherlands",0.397018059628464,"RTM"
"NLD","RTM","Rotterdam The Hague Airport","NL","medium_airport",51.956902,4.43722,-15,"Netherlands",0.397018059628464,"AMS"
"NLD","EIN","Eindhoven Airport","NL","large_airport",51.4500999451,5.37452983856,74,"Netherlands",0.397018059628464,"NRN"
"NOR","TRF","Sandefjord Airport, Torp","NO","medium_airport",59.186699,10.2586,286,"Norway",0.389296379234829,"OSL"
"NOR","SVG","Stavanger Airport, Sola","NO","large_airport",58.876701,5.63778,29,"Norway",0.389296379234829,"BGO"
"NOR","TRD","Trondheim Airport, Værnes","NO","large_airport",63.457802,10.924,56,"Norway",0.389296379234829,"OSD"
"NOR","TOS","Tromsø Airport, Langnes","NO","large_airport",69.683296,18.9189,31,"Norway",0.389296379234829,"KTT"
"NOR","BGO","Bergen Airport, Flesland","NO","large_airport",60.2934,5.21814,170,"Norway",0.389296379234829,"SVG"
"NOR","OSL","Oslo Airport, Gardermoen","NO","large_airport",60.193901,11.1004,681,"Norway",0.389296379234829,"TRF"
"NPL","KTM","Tribhuvan International Airport","NP","large_airport",27.6966,85.3591,4390,"Nepal",0.477194327046979,"PBH"
"NZL","AKL","Auckland International Airport","NZ","large_airport",-37.01199,174.786331,23,"New Zealand",0.451625729995842,"TAH"
"OMN","MCT","Muscat International Airport","OM","large_airport",23.5933,58.284401,48,"Oman",0.409779441451109,"RKT"
"PAK","ISB","Islamabad International Airport","PK","large_airport",33.549,72.82566,1761,"Pakistan",0.492726342440773,"LHE"
"PAK","KHI","Jinnah International Airport","PK","large_airport",24.9065,67.160797,100,"Pakistan",0.492726342440773,"AMD"
"PAK","LHE","Allama Iqbal International Airport","PK","large_airport",31.521601,74.403603,712,"Pakistan",0.492726342440773,"ISB"
"PAN","DAV","Enrique Malek International Airport","PA","medium_airport",8.391,-82.434998,89,"Panama",0.446480916577255,"SJO"
"PAN","PTY","Tocumen International Airport","PA","large_airport",9.07136,-79.383499,135,"Panama",0.446480916577255,"APO"
"PER","JUL","Inca Manco Capac International Airport","PE","medium_airport",-15.4671001434326,-70.158203125,12552,"Peru",0.456514878227523,"AQP"
"PER","LIM","Jorge Chávez International Airport","PE","large_airport",-12.0219,-77.114305,113,"Peru",0.456514878227523,"HUU"
"PER","TYL","Captain Victor Montes Arias International Airport","PE","medium_airport",-4.57664,-81.254097,282,"Peru",0.456514878227523,"PIU"
"PER","CJA","Mayor General FAP Armando Revoredo Iglesias Airport","PE","medium_airport",-7.13918,-78.489403,8781,"Peru",0.456514878227523,"TRU"
"PER","TBP","Captain Pedro Canga Rodríguez International Airport","PE","medium_airport",-3.552074,-80.381086,115,"Peru",0.456514878227523,"TYL"
"PER","CUZ","Alejandro Velasco Astete International Airport","PE","large_airport",-13.5356998444,-71.9387969971,10860,"Peru",0.456514878227523,"AYP"
"PER","AYP","Air Force Colonel Alfredo Mendivil Duarte Airport","PE","medium_airport",-13.1548,-74.204399,8917,"Peru",0.456514878227523,"CUZ"
"PER","PIU","Capitán FAP Guillermo Concha Iberico International Airport","PE","medium_airport",-5.20574998856,-80.6164016724,120,"Peru",0.456514878227523,"TYL"
"PER","TGI","Tingo Maria Airport","PE","small_airport",-9.289667,-76.005058,2146,"Peru",0.456514878227523,"HUU"
"PER","TCQ","Coronel FAP Carlos Ciriani Santa Rosa International Airport","PE","medium_airport",-18.0533008575,-70.2758026123,1538,"Peru",0.456514878227523,"ARI"
"PER","CIX","Air Force Captain Jose A Quinones Gonzales International Airport","PE","medium_airport",-6.78748,-79.828102,97,"Peru",0.456514878227523,"CJA"
"PER","PEM","Padre Aldamiz International Airport","PE","medium_airport",-12.6135997772,-69.2285995483,659,"Peru",0.456514878227523,"CUZ"
"PER","PCL","Cap FAP David Abenzur Rengifo International Airport","PE","medium_airport",-8.37794017791748,-74.5743026733398,513,"Peru",0.456514878227523,"TGI"
"PER","TPP","Cadete FAP Guillermo Del Castillo Paredes Airport","PE","medium_airport",-6.50873994827271,-76.3731994628906,869,"Peru",0.456514878227523,"CJA"
"PER","HUU","Alferez Fap David Figueroa Fernandini Airport","PE","medium_airport",-9.87880992889404,-76.2048034667969,6070,"Peru",0.456514878227523,"TGI"
"PER","IQT","Coronel FAP Francisco Secada Vignetta International Airport","PE","medium_airport",-3.78474,-73.3088,306,"Peru",0.456514878227523,"LET"
"PER","TRU","Capitan FAP Carlos Martinez De Pinillos International Airport","PE","medium_airport",-8.08141040802002,-79.1088027954102,106,"Peru",0.456514878227523,"CJA"
"PER","AQP","Rodríguez Ballón International Airport","PE","medium_airport",-16.3411006927,-71.5830993652,8405,"Peru",0.456514878227523,"JUL"
"PHL","DPL","Dipolog Airport","PH","medium_airport",8.601983,123.341875,12,"Philippines",0.492328185857846,"OZC"
"PHL","TAC","Daniel Z. Romualdez Airport","PH","medium_airport",11.227761,125.027783,10,"Philippines",0.492328185857846,"CYP"
"PHL","BCD","Bacolod-Silay Airport","PH","medium_airport",10.7764,123.014999,82,"Philippines",0.492328185857846,"ILO"
"PHL","BXU","Bancasi Airport","PH","medium_airport",8.9515,125.4788,141,"Philippines",0.492328185857846,"SUG"
"PHL","GES","General Santos International Airport","PH","medium_airport",6.05800008774,125.096000671,505,"Philippines",0.492328185857846,"DVO"
"PHL","CYP","Calbayog Airport","PH","medium_airport",12.072574,124.54508,12,"Philippines",0.492328185857846,"CRM"
"PHL","CRM","Catarman National Airport","PH","medium_airport",12.50161,124.635258,6,"Philippines",0.492328185857846,"CYP"
"PHL","MPH","Godofredo P. Ramos Airport","PH","medium_airport",11.9245,121.954002,7,"Philippines",0.492328185857846,"KLO"
"PHL","TUG","Tuguegarao Airport","PH","medium_airport",17.6433676823,121.733150482,70,"Philippines",0.492328185857846,"CYZ"
"PHL","ILO","Iloilo International Airport","PH","medium_airport",10.833017,122.493358,27,"Philippines",0.492328185857846,"BCD"
"PHL","DVO","Francisco Bangoy International Airport","PH","large_airport",7.12552,125.646004,96,"Philippines",0.492328185857846,"GES"
"PHL","BSO","Basco Airport","PH","medium_airport",20.4513,121.980003,291,"Philippines",0.492328185857846,"LAO"
"PHL","ENI","El Nido Airport","PH","small_airport",11.202399,119.416087,851.16211745244,"Philippines",0.492328185857846,"USU"
"PHL","CBO","Cotabato (Awang) Airport","PH","medium_airport",7.164753,124.209938,189,"Philippines",0.492328185857846,"PAG"
"PHL","CGM","Camiguin Airport","PH","medium_airport",9.253894,124.709115,53,"Philippines",0.492328185857846,"CGY"
"PHL","USU","Francisco B. Reyes (Busuanga) Airport","PH","medium_airport",12.121865,120.100801,148,"Philippines",0.492328185857846,"SJI"
"PHL","PAG","Pagadian Airport","PH","medium_airport",7.825632,123.459635,5,"Philippines",0.492328185857846,"OZC"
"PHL","TAG","Bohol-Panglao International Airport","PH","medium_airport",9.573045,123.770143,42,"Philippines",0.492328185857846,"DGT"
"PHL","SUG","Surigao Airport","PH","medium_airport",9.75583832563,125.480947495,20,"Philippines",0.492328185857846,"IAO"
"PHL","DGT","Sibulan Airport","PH","medium_airport",9.334183,123.30191,15,"Philippines",0.492328185857846,"TAG"
"PHL","SJI","San Jose Airport","PH","medium_airport",12.3614997864,121.04699707,14,"Philippines",0.492328185857846,"USU"
"PHL","ZAM","Zamboanga International Airport","PH","medium_airport",6.92242,122.059998,33,"Philippines",0.492328185857846,"PAG"
"PHL","VRC","Virac Airport","PH","medium_airport",13.5763998031616,124.206001281738,121,"Philippines",0.492328185857846,"CRM"
"PHL","KLO","Kalibo International Airport","PH","medium_airport",11.679400444,122.375999451,14,"Philippines",0.492328185857846,"RXS"
"PHL","MNL","Ninoy Aquino International Airport","PH","large_airport",14.5086,121.019997,75,"Philippines",0.492328185857846,"CRK"
"PHL","LAO","Laoag International Airport","PH","medium_airport",18.176121,120.531034,25,"Philippines",0.492328185857846,"TUG"
"PHL","PPS","Puerto Princesa International Airport / PAF Antonio Bautista Air Base","PH","medium_airport",9.74212,118.759003,71,"Philippines",0.492328185857846,"ENI"
"PHL","IAO","Siargao Airport","PH","small_airport",9.8591,126.014,10,"Philippines",0.492328185857846,"SUG"
"PHL","OZC","Labo Airport","PH","medium_airport",8.17851,123.842003,75,"Philippines",0.492328185857846,"PAG"
"PHL","RXS","Roxas Airport","PH","medium_airport",11.5977001190186,122.751998901367,10,"Philippines",0.492328185857846,"KLO"
"PHL","CRK","Clark International Airport / Clark Air Base","PH","medium_airport",15.186,120.559998,484,"Philippines",0.492328185857846,"MNL"
"PHL","CGY","Laguindingan International Airport","PH","medium_airport",8.612203,124.456496,190,"Philippines",0.492328185857846,"CGM"
"PHL","CYZ","Cauayan Airport","PH","medium_airport",16.9298992157,121.752998352,200,"Philippines",0.492328185857846,"TUG"
"PHL","CEB","Mactan Cebu International Airport","PH","large_airport",10.309261,123.97974,31,"Philippines",0.492328185857846,"TAG"
"POL","WMI","Modlin Airport","PL","medium_airport",52.451099,20.6518,341,"Poland",0.334121118628072,"WAW"
"POL","WAW","Warsaw Chopin Airport","PL","large_airport",52.165699,20.9671,362,"Poland",0.334121118628072,"WMI"
"POL","RZE","Rzeszów-Jasionka Airport","PL","medium_airport",50.109791,22.024155,693,"Poland",0.334121118628072,"KRK"
"POL","LCJ","Łódź Władysław Reymont Airport","PL","medium_airport",51.721901,19.3981,604,"Poland",0.334121118628072,"WMI"
"POL","KTW","Katowice Wojciech Korfanty International Airport","PL","medium_airport",50.476015,19.080705,995,"Poland",0.334121118628072,"KRK"
"POL","BZG","Bydgoszcz Ignacy Jan Paderewski Airport","PL","medium_airport",53.096802,17.977699,235,"Poland",0.334121118628072,"POZ"
"POL","GDN","Gdańsk Lech Wałęsa Airport","PL","large_airport",54.377602,18.4662,489,"Poland",0.334121118628072,"BZG"
"POL","POZ","Poznań-Ławica Airport","PL","medium_airport",52.421598,16.823359,308,"Poland",0.334121118628072,"BZG"
"POL","WRO","Copernicus Wrocław Airport","PL","medium_airport",51.103719,16.882096,404,"Poland",0.334121118628072,"POZ"
"POL","KRK","Kraków John Paul II International Airport","PL","large_airport",50.077702,19.7848,791,"Poland",0.334121118628072,"KTW"
"PRI","CPX","Benjamin Rivera Noriega Airport","PR","medium_airport",18.312954,-65.303893,49,"Puerto Rico",0.434583075941399,"SKB"
"PRI","MAZ","Eugenio Maria De Hostos Airport","PR","medium_airport",18.2556991577148,-67.1484985351562,28,"Puerto Rico",0.447163347975723,"PUJ"
"PRI","VQS","Antonio Rivera Rodriguez Airport","PR","medium_airport",18.1348,-65.493599,49,"Puerto Rico",0.447163347975723,"PUJ"
"PRI","SJU","Luis Munoz Marin International Airport","PR","large_airport",18.4394,-66.001801,9,"Puerto Rico",0.447163347975723,"PUJ"
"PRT","FAO","Faro Airport","PT","large_airport",37.0144004822,-7.96590995789,24,"Portugal",0.393535224353558,"SVQ"
"PRT","FNC","Madeira International Airport Cristiano Ronaldo","PT","large_airport",32.697899,-16.7745,192,"Portugal",0.393535224353558,"TFN"
"PRT","OPO","Francisco de Sá Carneiro Airport","PT","large_airport",41.2481002808,-8.68138980865,228,"Portugal",0.393535224353558,"SCQ"
"PRT","LIS","Lisbon Humberto Delgado Airport","PT","large_airport",38.7813,-9.13592,374,"Portugal",0.393535224353558,"FAO"
"PRY","ASU","Silvio Pettirossi International Airport","PY","large_airport",-25.240156,-57.519227,292,"Paraguay",0.422859915763575,"CNQ"
"PYF","HUH","Huahine-Fare Airport","PF","medium_airport",-16.687084,-151.021593,7,"French Polynesia",0.451625729995842,"AKL"
"PYF","PPT","Faa'a International Airport","PF","large_airport",-17.553699,-149.606995,5,"French Polynesia",0.451625729995842,"AKL"
"PYF","TIH","Tikehau Airport","PF","medium_airport",-15.1196002960205,-148.231002807617,6,"French Polynesia",0.481034463430793,"ITO"
"PYF","GMR","Totegegie Airport","PF","medium_airport",-23.0799007415771,-134.889999389648,7,"French Polynesia",0.384224730254937,"IPC"
"PYF","TKP","Takapoto Airport","PF","medium_airport",-14.7095003128052,-145.246002197266,12,"French Polynesia",0.384224730254937,"IPC"
"PYF","NIU","Naiu Airport","PF","small_airport",-16.119296,-146.368768,50,"French Polynesia",0.384224730254937,"IPC"
"PYF","NHV","Nuku Hiva Airport","PF","medium_airport",-8.7956,-140.229004,220,"French Polynesia",0.481034463430793,"ITO"
"PYF","AUQ","Hiva Oa-Atuona Airport","PF","medium_airport",-9.76879024506,-139.011001587,1481,"French Polynesia",0.384224730254937,"IPC"
"PYF","BOB","Bora Bora Airport","PF","medium_airport",-16.4444007873535,-151.751007080078,10,"French Polynesia",0.451625729995842,"AKL"
"PYF","RGI","Rangiroa Airport","PF","medium_airport",-14.9542999267578,-147.660995483398,10,"French Polynesia",0.481034463430793,"ITO"
"PYF","MOZ","Moorea Temae Airport","PF","medium_airport",-17.48979,-149.761777,9,"French Polynesia",0.451625729995842,"AKL"
"PYF","RFP","Raiatea Airport","PF","medium_airport",-16.7229,-151.466003,3,"French Polynesia",0.451625729995842,"AKL"
"QAT","DOH","Hamad International Airport","QA","large_airport",25.273056,51.608056,13,"Qatar",0.397007698611545,"BAH"
"REU","RUN","Roland Garros Airport","RE","large_airport",-20.890087,55.518894,66,"Réunion",0.484726712434878,"MRU"
"ROU","TSR","Timişoara Traian Vuia Airport","RO","medium_airport",45.809898,21.3379,348,"Romania",0.445196936592784,"BEG"
"ROU","BBU","Bucharest Băneasa Aurel Vlaicu International Airport","RO","medium_airport",44.503201,26.1021,297,"Romania",0.445196936592784,"OTP"
"ROU","OTP","Bucharest Henri Coandă International Airport","RO","large_airport",44.572127,26.103396,314,"Romania",0.445196936592784,"BBU"
"ROU","SBZ","Sibiu International Airport","RO","medium_airport",45.785841,24.086666,1496,"Romania",0.445196936592784,"CLJ"
"ROU","CRA","Craiova International Airport","RO","medium_airport",44.3181,23.888599,626,"Romania",0.445196936592784,"SBZ"
"ROU","IAS","Iaşi Airport","RO","medium_airport",47.180278,27.620833,411,"Romania",0.445196936592784,"CLJ"
"ROU","CLJ","Cluj Avram Iancu International Airport","RO","medium_airport",46.787425,23.684292,1039,"Romania",0.445196936592784,"SBZ"
"RUS","PKC","Yelizovo Airport","RU","medium_airport",53.16764,158.451863,131,"Russia",0.439620541791716,"GDX"
"RUS","BTK","Bratsk Airport","RU","medium_airport",56.3706016540527,101.697998046875,1610,"Russia",0.439620541791716,"IKT"
"RUS","SLY","Salekhard Airport","RU","medium_airport",66.5907974243164,66.6110000610352,218,"Russia",0.439620541791716,"VKT"
"RUS","IJK","Izhevsk Airport","RU","medium_airport",56.8280982971191,53.4575004577637,531,"Russia",0.439620541791716,"NBC"
"RUS","MQF","Magnitogorsk International Airport","RU","medium_airport",53.3931007385254,58.7556991577148,1430,"Russia",0.439620541791716,"UFA"
"RUS","HTA","Chita-Kadala International Airport","RU","medium_airport",52.026299,113.306,2272,"Russia",0.439620541791716,"UUD"
"RUS","ASF","Astrakhan Narimanovo Boris M. Kustodiev International Airport","RU","medium_airport",46.282843,48.010511,-65,"Russia",0.439620541791716,"GRV"
"RUS","VVO","Vladivostok International Airport","RU","large_airport",43.396256,132.148155,59,"Russia",0.439620541791716,"HRB"
"RUS","GDX","Sokol Airport","RU","medium_airport",59.9109992980957,150.720001220703,574,"Russia",0.439620541791716,"PKC"
"RUS","NLI","Nikolayevsk-na-Amure Airport","RU","medium_airport",53.154999,140.649994,170,"Russia",0.439620541791716,"KHV"
"RUS","TJM","Roshchino International Airport","RU","medium_airport",57.16833,65.31611,378,"Russia",0.439620541791716,"KRO"
"RUS","UUS","Yuzhno-Sakhalinsk Airport","RU","medium_airport",46.885461,142.717466,59,"Russia",0.439620541791716,"RIS"
"RUS","BAX","Barnaul Airport","RU","medium_airport",53.3638000488281,83.5384979248047,837,"Russia",0.439620541791716,"OVB"
"RUS","RGK","Gorno-Altaysk Airport","RU","medium_airport",51.969204,85.836539,965,"Russia",0.439620541791716,"NOZ"
"RUS","KEJ","Kemerovo Airport","RU","medium_airport",55.2700996398926,86.1072006225586,863,"Russia",0.439620541791716,"TOF"
"RUS","IKT","Irkutsk International Airport","RU","medium_airport",52.268002,104.389,1675,"Russia",0.439620541791716,"UUD"
"RUS","UUD","Baikal International Airport","RU","medium_airport",51.808614,107.439652,1690,"Russia",0.439620541791716,"IKT"
"RUS","TKM","Taksimo Airport","RU","small_airport",56.361668,114.93,1634,"Russia",0.439620541791716,"TLK"
"RUS","AER","Sochi International Airport","RU","large_airport",43.449902,39.9566,89,"Russia",0.439620541791716,"KRR"
"RUS","KRR","Krasnodar Pashkovsky International Airport","RU","medium_airport",45.034698,39.170502,118,"Russia",0.439620541791716,"AAQ"
"RUS","GRV","Grozny Airport","RU","medium_airport",43.388106,45.699772,548,"Russia",0.439620541791716,"IGT"
"RUS","MCX","Makhachkala Uytash International Airport","RU","medium_airport",42.816799,47.652302,12,"Russia",0.439620541791716,"GRV"
"RUS","KGD","Khrabrovo Airport","RU","medium_airport",54.8899993896484,20.5925998687744,42,"Russia",0.439620541791716,"PLQ"
"RUS","NAL","Nalchik Airport","RU","medium_airport",43.5129013061523,43.6366004943848,1461,"Russia",0.439620541791716,"OGZ"
"RUS","OGZ","Vladikavkaz Beslan International Airport","RU","medium_airport",43.205101,44.606602,1673,"Russia",0.439620541791716,"IGT"
"RUS","IGT","Magas Airport","RU","medium_airport",43.323268,45.012568,1165,"Russia",0.439620541791716,"OGZ"
"RUS","MRV","Mineralnyye Vody Airport","RU","medium_airport",44.2251014709473,43.081901550293,1054,"Russia",0.439620541791716,"NAL"
"RUS","NNM","Naryan Mar Airport","RU","medium_airport",67.639999,53.121899,36,"Russia",0.439620541791716,"UCT"
"RUS","VOG","Volgograd International Airport","RU","medium_airport",48.7825012207031,44.3455009460449,482,"Russia",0.439620541791716,"GSV"
"RUS","CEK","Chelyabinsk Balandino Airport","RU","medium_airport",55.305801,61.5033,769,"Russia",0.439620541791716,"SVX"
"RUS","NSK","Norilsk-Alykel Airport","RU","medium_airport",69.3110961914062,87.3321990966797,574,"Russia",0.439620541791716,"NUX"
"RUS","GOJ","Nizhny Novgorod / Strigino International Airport","RU","medium_airport",56.228254,43.785197,256,"Russia",0.439620541791716,"IWA"
"RUS","UUA","Bugulma Airport","RU","medium_airport",54.641184,52.800229,991,"Russia",0.439620541791716,"NBC"
"RUS","KZN","Kazan International Airport","RU","large_airport",55.606201,49.278702,411,"Russia",0.439620541791716,"CSY"
"RUS","NBC","Begishevo Airport","RU","medium_airport",55.564701,52.092499,643,"Russia",0.439620541791716,"UUA"
"RUS","HMA","Khanty Mansiysk Airport","RU","medium_airport",61.0285,69.086098,76,"Russia",0.439620541791716,"SGC"
"RUS","URJ","Uray Airport","RU","medium_airport",60.103298,64.826698,190,"Russia",0.439620541791716,"HMA"
"RUS","OSW","Orsk Airport","RU","medium_airport",51.072498,58.5956,909,"Russia",0.439620541791716,"REN"
"RUS","KVX","Pobedilovo Airport","RU","medium_airport",58.503883,49.347831,479,"Russia",0.439620541791716,"CSY"
"RUS","STW","Stavropol Shpakovskoye Airport","RU","medium_airport",45.1091995239258,42.1128005981445,1486,"Russia",0.439620541791716,"MRV"
"RUS","ROV","Platov International Airport","RU","large_airport",47.493888,39.924722,213,"Russia",0.439620541791716,"KRR"
"RUS","BQS","Ignatyevo Airport","RU","medium_airport",50.4253997802734,127.412002563477,638,"Russia",0.439620541791716,"HRB"
"RUS","KHV","Khabarovsk Novy Airport","RU","medium_airport",48.528338,135.188588,244,"Russia",0.439620541791716,"RIS"
"RUS","SCW","Syktyvkar Airport","RU","medium_airport",61.6469993591309,50.845100402832,342,"Russia",0.439620541791716,"UCT"
"RUS","PKV","Pskov Airport","RU","medium_airport",57.7839012145996,28.3955993652344,154,"Russia",0.439620541791716,"LED"
"RUS","CEE","Cherepovets Airport","RU","medium_airport",59.273601532,38.0158004761,377,"Russia",0.439620541791716,"IWA"
"RUS","SVX","Koltsovo Airport","RU","large_airport",56.743099212646,60.802700042725,764,"Russia",0.439620541791716,"CEK"
"RUS","ABA","Abakan International Airport","RU","medium_airport",53.740002,91.385002,831,"Russia",0.439620541791716,"KJA"
"RUS","KRO","Kurgan Airport","RU","medium_airport",55.4753,65.415604,240,"Russia",0.439620541791716,"TJM"
"RUS","IWA","Ivanovo South Airport","RU","medium_airport",56.9393997192383,40.9407997131348,410,"Russia",0.439620541791716,"GOJ"
"RUS","ZIA","Zhukovsky International Airport","RU","large_airport",55.553299,38.150002,377,"Russia",0.439620541791716,"DME"
"RUS","KJA","Krasnoyarsk International Airport","RU","large_airport",56.173077,92.492437,942,"Russia",0.439620541791716,"ABA"
"RUS","NYM","Nadym Airport","RU","medium_airport",65.4809036254883,72.6988983154297,49,"Russia",0.439620541791716,"NUX"
"RUS","ARH","Talagi Airport","RU","medium_airport",64.6003036499023,40.7167015075684,62,"Russia",0.439620541791716,"KAO"
"RUS","UCT","Ukhta Airport","RU","medium_airport",63.566898,53.804699,482,"Russia",0.439620541791716,"SCW"
"RUS","VKT","Vorkuta Airport","RU","medium_airport",67.488602,63.993099,604,"Russia",0.439620541791716,"SLY"
"RUS","MMK","Murmansk Airport","RU","medium_airport",68.7817001342773,32.7508010864258,266,"Russia",0.439620541791716,"KAO"
"RUS","NOJ","Noyabrsk Airport","RU","medium_airport",63.1833000183105,75.2699966430664,446,"Russia",0.439620541791716,"SGC"
"RUS","AAQ","Anapa Vityazevo Airport","RU","medium_airport",45.002102,37.347301,174,"Russia",0.439620541791716,"KRR"
"RUS","KUF","Kurumoch International Airport","RU","large_airport",53.504902,50.164299,477,"Russia",0.439620541791716,"ULV"
"RUS","DME","Domodedovo International Airport","RU","large_airport",55.408798,37.9063,588,"Russia",0.439620541791716,"ZIA"
"RUS","SVO","Sheremetyevo International Airport","RU","large_airport",55.972599,37.4146,622,"Russia",0.439620541791716,"VKO"
"RUS","CSY","Cheboksary Airport","RU","medium_airport",56.090302,47.347301,558,"Russia",0.439620541791716,"KZN"
"RUS","ULV","Ulyanovsk Baratayevka Airport","RU","medium_airport",54.268299,48.2267,449,"Russia",0.439620541791716,"KUF"
"RUS","LED","Pulkovo Airport","RU","large_airport",59.800301,30.262501,78,"Russia",0.439620541791716,"PKV"
"RUS","NOZ","Spichenkovo Airport","RU","medium_airport",53.811401,86.877197,1024,"Russia",0.439620541791716,"KEJ"
"RUS","VOZ","Voronezh International Airport","RU","medium_airport",51.8142013549805,39.2295989990234,514,"Russia",0.439620541791716,"DME"
"RUS","NJC","Nizhnevartovsk Airport","RU","medium_airport",60.949299,76.483597,177,"Russia",0.439620541791716,"SGC"
"RUS","VKO","Vnukovo International Airport","RU","large_airport",55.591499,37.261501,685,"Russia",0.439620541791716,"SVO"
"RUS","REN","Orenburg Central Airport","RU","medium_airport",51.7957992553711,55.4566993713379,387,"Russia",0.439620541791716,"OSW"
"RUS","TOF","Bogashevo Airport","RU","medium_airport",56.380298614502,85.208297729492,597,"Russia",0.439620541791716,"KEJ"
"RUS","SGC","Surgut Airport","RU","medium_airport",61.3437004089355,73.4018020629883,200,"Russia",0.439620541791716,"NJC"
"RUS","UFA","Ufa International Airport","RU","large_airport",54.557498931885,55.874401092529,449,"Russia",0.439620541791716,"UUA"
"RUS","GSV","Gagarin International Airport","RU","large_airport",51.712778,46.171111,103,"Russia",0.439620541791716,"PEZ"
"RUS","PEE","Perm International Airport","RU","medium_airport",57.914501,56.021198,404,"Russia",0.439620541791716,"IJK"
"RUS","PEZ","Penza Airport","RU","medium_airport",53.1105995178223,45.0210990905762,614,"Russia",0.439620541791716,"SKX"
"RUS","KYZ","Kyzyl Airport","RU","medium_airport",51.669399,94.400597,2123,"Russia",0.439620541791716,"ABA"
"RUS","NUX","Novy Urengoy Airport","RU","medium_airport",66.0693969726562,76.5203018188477,210,"Russia",0.439620541791716,"NYM"
"RUS","NER","Chulman Airport","RU","medium_airport",56.913898468018,124.91400146484,2812,"Russia",0.439620541791716,"TKM"
"RUS","SKX","Saransk Airport","RU","medium_airport",54.125129699707,45.2122573852539,676,"Russia",0.439620541791716,"PEZ"
"RUS","OMS","Omsk Central Airport","RU","medium_airport",54.9669990539551,73.3105010986328,311,"Russia",0.439620541791716,"NQZ"
"RUS","TLK","Talakan Airport","RU","small_airport",59.876389,111.044444,1329,"Russia",0.439620541791716,"TKM"
"RUS","YKS","Yakutsk Airport","RU","medium_airport",62.0932998657227,129.77099609375,325,"Russia",0.439620541791716,"NER"
"RUS","OVB","Novosibirsk Tolmachevo Airport","RU","large_airport",55.019756,82.618675,365,"Russia",0.439620541791716,"BAX"
"RWA","KGL","Kigali International Airport","RW","large_airport",-1.96863,30.1395,4859,"Rwanda",0.50862833712542,"MWZ"
"SAU","GIZ","Jizan Regional Airport / King Abdullah bin Abdulaziz Airport","SA","medium_airport",16.9011,42.5858,20,"Saudi Arabia",0.357654655746555,"AHB"
"SAU","TUU","Tabuk Airport","SA","medium_airport",28.3654,36.6189,2551,"Saudi Arabia",0.357654655746555,"ETM"
"SAU","DMM","King Fahd International Airport","SA","large_airport",26.471201,49.797901,72,"Saudi Arabia",0.357654655746555,"BAH"
"SAU","MED","Prince Mohammad Bin Abdulaziz Airport","SA","large_airport",24.5534,39.705101,2151,"Saudi Arabia",0.357654655746555,"YNB"
"SAU","ELQ","Gassim Airport","SA","medium_airport",26.302799,43.774399,2126,"Saudi Arabia",0.357654655746555,"HAS"
"SAU","HAS","Ha'il Airport","SA","medium_airport",27.437901,41.686298,3331,"Saudi Arabia",0.357654655746555,"ELQ"
"SAU","JED","King Abdulaziz International Airport","SA","large_airport",21.6796,39.156502,48,"Saudi Arabia",0.357654655746555,"TIF"
"SAU","AHB","Abha International Airport","SA","medium_airport",18.2404,42.656601,6858,"Saudi Arabia",0.357654655746555,"GIZ"
"SAU","YNB","Prince Abdul Mohsin bin Abdulaziz International Airport / Yanbu Airport","SA","medium_airport",24.144199,38.0634,26,"Saudi Arabia",0.357654655746555,"MED"
"SAU","RUH","King Khaled International Airport","SA","large_airport",24.9576,46.698799,2049,"Saudi Arabia",0.357654655746555,"ELQ"
"SAU","EAM","Najran Domestic Airport","SA","medium_airport",17.611401,44.419201,3982,"Saudi Arabia",0.357654655746555,"AHB"
"SAU","TIF","Ta’if Regional Airport","SA","medium_airport",21.483001,40.543442,4848,"Saudi Arabia",0.357654655746555,"JED"
"SEN","DSS","Blaise Diagne International Airport","SN","large_airport",14.670878,-17.072829,290,"Senegal",0.511141951530812,"BJL"
"SGP","SIN","Singapore Changi Airport","SG","large_airport",1.35019,103.994003,22,"Singapore",0.538326678694068,"KUL"
"SLB","HIR","Honiara International Airport","SB","large_airport",-9.428,160.054993,28,"Solomon Islands",0.557079259809077,"SON"
"SLE","FNA","Lungi International Airport","SL","large_airport",8.61644,-13.1955,84,"Sierra Leone",0.484694803219212,"CKY"
"SLV","SAL","Monseñor Óscar Arnulfo Romero International Airport","SV","large_airport",13.4409,-89.055702,101,"El Salvador",0.469296361158769,"GUA"
"SOM","GGR","Garowe Airport","SO","small_airport",8.457942,48.567407,1465,"Somalia",0.525994699669933,"HGA"
"SOM","HGA","Egal International Airport","SO","medium_airport",9.513207,44.082389,4471,"Somalia",0.525994699669933,"JIB"
"SOM","MGQ","Aden Adde International Airport","SO","medium_airport",2.01444005966187,45.3046989440918,29,"Somalia",0.525994699669933,"GGR"
"SRB","INI","Niš Constantine the Great Airport","RS","medium_airport",43.337009,21.85451,648,"Serbia",0.363484102920128,"SOF"
"SRB","BEG","Belgrade Nikola Tesla Airport","RS","large_airport",44.818401,20.309099,335,"Serbia",0.363484102920128,"TSR"
"SSD","JUB","Juba International Airport","SS","large_airport",4.87201,31.601101,1513,"South Sudan",0.519979538604867,"EBB"
"STP","TMS","São Tomé International Airport","ST","large_airport",0.378175,6.71215,33,"São Tomé & Príncipe",0.476742984465288,"POG"
"SUR","SMZ","Stoelmanseiland Airport","SR","small_airport",4.351389,-54.418056,187,"Suriname",0.418220178645075,"DRJ"
"SUR","PBM","Johan Adolf Pengel International Airport","SR","large_airport",5.45283,-55.187801,59,"Suriname",0.418220178645075,"SMZ"
"SUR","DRJ","Drietabbetje Airport","SR","small_airport",4.111359,-54.672766,236,"Suriname",0.418220178645075,"SMZ"
"SVK","BTS","M. R. Štefánik Airport","SK","large_airport",48.1702,17.2127,436,"Slovakia",0.334693342694832,"VIE"
"SWE","UME","Umeå Airport","SE","medium_airport",63.791801452637,20.282800674438,24,"Sweden",0.410122174647921,"SFT"
"SWE","MMX","Malmö Sturup Airport","SE","medium_airport",55.535564,13.376327,236,"Sweden",0.410122174647921,"CPH"
"SWE","NYO","Stockholm Skavsta Airport","SE","medium_airport",58.788601,16.912201,140,"Sweden",0.410122174647921,"LPI"
"SWE","LPI","Linköping City Airport","SE","medium_airport",58.4062004089,15.6805000305,172,"Sweden",0.410122174647921,"NYO"
"SWE","VST","Stockholm Västerås Airport","SE","medium_airport",59.5894012451172,16.6336002349854,21,"Sweden",0.410122174647921,"ARN"
"SWE","VXO","Växjö Kronoberg Airport","SE","medium_airport",56.9291000366211,14.7279996871948,610,"Sweden",0.410122174647921,"HAD"
"SWE","OSD","Åre Östersund Airport","SE","medium_airport",63.194135,14.500322,1233,"Sweden",0.410122174647921,"TRD"
"SWE","ORB","Örebro Airport","SE","medium_airport",59.2237014770508,15.0380001068115,188,"Sweden",0.410122174647921,"LPI"
"SWE","ARN","Stockholm-Arlanda Airport","SE","large_airport",59.64849,17.928829,137,"Sweden",0.410122174647921,"BMA"
"SWE","HAD","Halmstad Airport","SE","medium_airport",56.6911010742188,12.8201999664307,101,"Sweden",0.410122174647921,"GOT"
"SWE","GOT","Göteborg Landvetter Airport","SE","large_airport",57.6628,12.2798,506,"Sweden",0.410122174647921,"HAD"
"SWE","SFT","Skellefteå Airport","SE","medium_airport",64.6248016357422,21.0769004821777,157,"Sweden",0.410122174647921,"UME"
"SWE","LLA","Luleå Airport","SE","medium_airport",65.5438,22.122,65,"Sweden",0.410122174647921,"SFT"
"SWE","VBY","Visby Airport","SE","medium_airport",57.662799835205,18.346200942993,164,"Sweden",0.410122174647921,"NYO"
"SWE","BMA","Stockholm-Bromma Airport","SE","medium_airport",59.3544006347656,17.9416999816895,47,"Sweden",0.410122174647921,"ARN"
"SXM","SXM","Princess Juliana International Airport","SX","large_airport",18.041,-63.108898,13,"Sint Maarten",0.434583075941399,"SKB"
"SYC","SEZ","Seychelles International Airport","SC","large_airport",-4.67434,55.521801,10,"Seychelles",0.594331149128666,"DIE"
"TCD","NDJ","N'Djamena International Airport","TD","large_airport",12.1337,15.034,968,"Chad",0.540632372498568,"MVR"
"TGO","LFW","Lomé–Tokoin International Airport","TG","medium_airport",6.16561,1.25451,72,"Togo",0.409192655845158,"COO"
"THA","BKK","Suvarnabhumi Airport","TH","large_airport",13.6810998916626,100.747001647949,5,"Thailand",0.457569648430911,"DMK"
"THA","URT","Surat Thani Airport","TH","medium_airport",9.13259983063,99.135597229,20,"Thailand",0.457569648430911,"NST"
"THA","CJM","Chumphon Airport","TH","medium_airport",10.7112,99.361702,18,"Thailand",0.457569648430911,"KAW"
"THA","PHS","Phitsanulok Airport","TH","medium_airport",16.7829,100.278999,154,"Thailand",0.457569648430911,"THS"
"THA","DMK","Don Mueang International Airport","TH","large_airport",13.9125995636,100.607002258,9,"Thailand",0.457569648430911,"BKK"
"THA","USM","Samui Airport","TH","medium_airport",9.54779,100.061996,64,"Thailand",0.457569648430911,"URT"
"THA","CNX","Chiang Mai International Airport","TH","large_airport",18.7667999268,98.962600708,1036,"Thailand",0.457569648430911,"LPT"
"THA","LPT","Lampang Airport","TH","medium_airport",18.2709007263184,99.5042037963867,811,"Thailand",0.457569648430911,"CNX"
"THA","NNT","Nan Airport","TH","medium_airport",18.8078994750977,100.782997131348,685,"Thailand",0.457569648430911,"LPT"
"THA","CEI","Mae Fah Luang - Chiang Rai International Airport","TH","medium_airport",19.952299,99.882896,1280,"Thailand",0.457569648430911,"THL"
"THA","HHQ","Hua Hin Airport","TH","medium_airport",12.6361999512,99.951499939,62,"Thailand",0.457569648430911,"BKK"
"THA","THS","Sukhothai Airport","TH","medium_airport",17.238000869751,99.8181991577148,179,"Thailand",0.457569648430911,"PHS"
"THA","BFV","Buri Ram Airport","TH","medium_airport",15.2295,103.252998,590,"Thailand",0.457569648430911,"ROI"
"THA","UBP","Ubon Ratchathani Airport","TH","medium_airport",15.2512998581,104.870002747,406,"Thailand",0.457569648430911,"ROI"
"THA","ROI","Roi Et Airport","TH","medium_airport",16.1168,103.774002,451,"Thailand",0.457569648430911,"KKC"
"THA","KOP","Nakhon Phanom Airport","TH","medium_airport",17.383801,104.642998,587,"Thailand",0.457569648430911,"SNO"
"THA","NST","Nakhon Si Thammarat Airport","TH","medium_airport",8.5396203994751,99.9447021484375,13,"Thailand",0.457569648430911,"URT"
"THA","KBV","Krabi Airport","TH","medium_airport",8.09912014008,98.9861984253,82,"Thailand",0.457569648430911,"HKT"
"THA","UTH","Udon Thani Airport","TH","medium_airport",17.3864002228,102.788002014,579,"Thailand",0.457569648430911,"VTE"
"THA","HKT","Phuket International Airport","TH","large_airport",8.1132,98.316902,82,"Thailand",0.457569648430911,"KBV"
"THA","HDY","Hat Yai International Airport","TH","medium_airport",6.93320989609,100.392997742,90,"Thailand",0.457569648430911,"TST"
"THA","TST","Trang Airport","TH","medium_airport",7.50874,99.6166,67,"Thailand",0.457569648430911,"KBV"
"THA","SNO","Sakon Nakhon Airport","TH","medium_airport",17.1951007843018,104.119003295898,529,"Thailand",0.457569648430911,"KOP"
"THA","KKC","Khon Kaen Airport","TH","medium_airport",16.4666004181,102.783996582,670,"Thailand",0.457569648430911,"UTH"
"TJK","LBD","Khujand Airport","TJ","medium_airport",40.215401,69.694702,1450,"Tajikistan",0.361268719901955,"TAS"
"TJK","DYU","Dushanbe International Airport","TJ","medium_airport",38.543746,68.822977,2575,"Tajikistan",0.361268719901955,"TJU"
"TJK","TJU","Kulob Airport","TJ","medium_airport",37.9880981445312,69.8050003051758,2293,"Tajikistan",0.361268719901955,"DYU"
"TUN","DJE","Djerba Zarzis International Airport","TN","medium_airport",33.875,10.7755,19,"Tunisia",0.329594486342073,"MIR"
"TUN","MIR","Monastir Habib Bourguiba International Airport","TN","medium_airport",35.7580986022949,10.7546997070312,9,"Tunisia",0.329594486342073,"NBE"
"TUN","TUN","Tunis Carthage International Airport","TN","large_airport",36.851002,10.2272,22,"Tunisia",0.329594486342073,"NBE"
"TUN","NBE","Enfidha - Hammamet International Airport","TN","medium_airport",36.075833,10.438611,21,"Tunisia",0.329594486342073,"MIR"
"TUR","GNY","Şanlıurfa GAP Airport","TR","medium_airport",37.445663,38.895592,2708,"Turkey",0.415344744909739,"DIY"
"TUR","KYA","Konya Airport","TR","medium_airport",37.979,32.561901,3392,"Turkey",0.415344744909739,"AYT"
"TUR","GZT","Gaziantep International Airport","TR","medium_airport",36.947201,37.478699,2315,"Turkey",0.415344744909739,"GNY"
"TUR","AYT","Antalya International Airport","TR","large_airport",36.898701,30.800501,177,"Turkey",0.415344744909739,"DLM"
"TUR","MLX","Malatya Erhaç Airport","TR","medium_airport",38.4352989197,38.0909996033,2828,"Turkey",0.415344744909739,"EZS"
"TUR","BAL","Batman Airport","TR","medium_airport",37.9290008545,41.1166000366,1822,"Turkey",0.415344744909739,"DIY"
"TUR","SZF","Samsun-Çarşamba Airport","TR","medium_airport",41.253988,36.567546,18,"Turkey",0.415344744909739,"OGU"
"TUR","BJV","Milas Bodrum International Airport","TR","large_airport",37.250599,27.664301,21,"Turkey",0.415344744909739,"KGS"
"TUR","ERZ","Erzurum International Airport","TR","medium_airport",39.956501,41.1702,5763,"Turkey",0.415344744909739,"MSR"
"TUR","SAW","Istanbul Sabiha Gökçen International Airport","TR","large_airport",40.898602,29.3092,312,"Turkey",0.415344744909739,"IST"
"TUR","MSR","Muş Airport","TR","medium_airport",38.7477989196777,41.6612014770508,4157,"Turkey",0.415344744909739,"BAL"
"TUR","ERC","Erzincan Airport","TR","medium_airport",39.7102012634,39.5270004272,3783,"Turkey",0.415344744909739,"EZS"
"TUR","CKZ","Çanakkale Airport","TR","medium_airport",40.1376991272,26.4267997742,23,"Turkey",0.415344744909739,"AXD"
"TUR","ADB","Adnan Menderes International Airport","TR","large_airport",38.2924,27.157,412,"Turkey",0.415344744909739,"SMI"
"TUR","DLM","Dalaman International Airport","TR","large_airport",36.7131004333,28.7924995422,20,"Turkey",0.415344744909739,"RHO"
"TUR","COV","Çukurova International Airport","TR","large_airport",36.890908,35.070522,35,"Turkey",0.415344744909739,"GZT"
"TUR","DIY","Diyarbakır Airport","TR","medium_airport",37.893902,40.201,2251,"Turkey",0.415344744909739,"BAL"
"TUR","OGU","Ordu–Giresun Airport","TR","medium_airport",40.966872,38.085995,11,"Turkey",0.415344744909739,"SZF"
"TUR","TZX","Trabzon International Airport","TR","medium_airport",40.995098,39.7897,104,"Turkey",0.415344744909739,"OGU"
"TUR","IST","İstanbul Airport","TR","large_airport",41.261297,28.741951,325,"Turkey",0.415344744909739,"SAW"
"TUR","EZS","Elazığ Airport","TR","medium_airport",38.597974,39.28348,2927,"Turkey",0.415344744909739,"MLX"
"TWN","KHH","Kaohsiung International Airport","TW","large_airport",22.577101,120.349998,31,"Taiwan",0.492328185857846,"BSO"
"TWN","TPE","Taiwan Taoyuan International Airport","TW","large_airport",25.0777,121.233002,106,"Taiwan",0.519500569175998,"OGN"
"TZA","ARK","Arusha Airport","TZ","medium_airport",-3.36778998374939,36.63330078125,4550,"Tanzania",0.499199612749496,"JRO"
"TZA","ZNZ","Abeid Amani Karume International Airport","TZ","large_airport",-6.22202,39.224899,54,"Tanzania",0.499199612749496,"DAR"
"TZA","KBH","Kahama Airstrip","TZ","small_airport",-3.847,32.6865,851.16211745244,"Tanzania",0.499199612749496,"MWZ"
"TZA","MBI","Songwe Airport","TZ","medium_airport",-8.919942,33.273981,4412,"Tanzania",0.499199612749496,"IRI"
"TZA","TKQ","Kigoma Airport","TZ","small_airport",-4.8862,29.6709,2700,"Tanzania",0.499199612749496,"KGL"
"TZA","TGT","Tanga Airport","TZ","medium_airport",-5.09236,39.071201,129,"Tanzania",0.499199612749496,"PMA"
"TZA","DOD","Dodoma Airport","TZ","medium_airport",-6.17044,35.752602,3673,"Tanzania",0.499199612749496,"IRI"
"TZA","MFA","Mafia Airport","TZ","small_airport",-7.917478,39.668502,60,"Tanzania",0.499199612749496,"DAR"
"TZA","JRO","Kilimanjaro International Airport","TZ","medium_airport",-3.42941,37.074501,2932,"Tanzania",0.499199612749496,"ARK"
"TZA","DAR","Julius Nyerere International Airport","TZ","large_airport",-6.87811,39.202599,182,"Tanzania",0.499199612749496,"ZNZ"
"TZA","PMA","Pemba Airport","TZ","medium_airport",-5.25726,39.811401,80,"Tanzania",0.499199612749496,"TGT"
"TZA","IRI","Iringa Airport","TZ","medium_airport",-7.66863,35.752102,4678,"Tanzania",0.499199612749496,"DOD"
"TZA","MWZ","Mwanza Airport","TZ","medium_airport",-2.4444899559021,32.9327011108398,3763,"Tanzania",0.499199612749496,"KBH"
"UGA","EBB","Entebbe International Airport","UG","large_airport",0.042386,32.443501,3782,"Uganda",0.519979538604867,"MWZ"
"Unknown","PRN","Priština Adem Jashari International Airport","XK","medium_airport",42.5728,21.035801,1789,NA,0.314798622333691,"SKP"
"URY","MVD","Carrasco General Cesáreo L. Berisso International Airport","UY","large_airport",-34.835647,-56.026497,105,"Uruguay",0.454464635438777,"AEP"
"USA","AUG","Augusta State Airport","US","medium_airport",44.3205986023,-69.7973022461,352,"United States",0.481034463430793,"PWM"
"USA","SLN","Salina Municipal Airport","US","medium_airport",38.7910003662109,-97.6521987915039,1288,"United States",0.481034463430793,"ICT"
"USA","TUL","Tulsa International Airport","US","large_airport",36.1983985900879,-95.8880996704102,677,"United States",0.481034463430793,"XNA"
"USA","SUA","Witham Field","US","small_airport",27.18169975,-80.22109985,16,"United States",0.481034463430793,"FPR"
"USA","TEB","Teterboro Airport","US","medium_airport",40.850101,-74.060799,9,"United States",0.481034463430793,"LGA"
"USA","STL","St. Louis Lambert International Airport","US","large_airport",38.748697,-90.370003,618,"United States",0.481034463430793,"SPI"
"USA","SMF","Sacramento International Airport","US","large_airport",38.6954,-121.591003,27,"United States",0.481034463430793,"OAK"
"USA","SNA","John Wayne Orange County International Airport","US","large_airport",33.675701,-117.867996,56,"United States",0.481034463430793,"LGB"
"USA","SPI","Abraham Lincoln Capital Airport","US","medium_airport",39.844101,-89.677902,598,"United States",0.481034463430793,"DEC"
"USA","AUS","Austin Bergstrom International Airport","US","large_airport",30.197535,-97.662015,542,"United States",0.481034463430793,"IAH"
"USA","STP","Saint Paul Downtown Holman Field","US","medium_airport",44.93479,-93.060036,705,"United States",0.481034463430793,"MSP"
"USA","BWI","Baltimore/Washington International Thurgood Marshall Airport","US","large_airport",39.1754,-76.668297,146,"United States",0.481034463430793,"DCA"
"USA","JHM","Kapalua Airport","US","medium_airport",20.9629,-156.673004,256,"United States",0.481034463430793,"OGG"
"USA","SLK","Adirondack Regional Airport","US","medium_airport",44.38691,-74.204629,1663,"United States",0.481034463430793,"YUL"
"USA","CVG","Cincinnati Northern Kentucky International Airport","US","large_airport",39.048801,-84.667801,896,"United States",0.481034463430793,"LEX"
"USA","DAL","Dallas Love Field","US","medium_airport",32.847099,-96.851799,487,"United States",0.481034463430793,"DFW"
"USA","DBQ","Dubuque Regional Airport","US","medium_airport",42.402,-90.709503,1077,"United States",0.481034463430793,"CID"
"USA","ABY","Southwest Georgia Regional Airport","US","medium_airport",31.532946,-84.196215,197,"United States",0.481034463430793,"TLH"
"USA","BOS","Logan International Airport","US","large_airport",42.36197,-71.0079,20,"United States",0.481034463430793,"BED"
"USA","BUF","Buffalo Niagara International Airport","US","large_airport",42.940498,-78.732201,728,"United States",0.481034463430793,"ROC"
"USA","DFW","Dallas Fort Worth International Airport","US","large_airport",32.896801,-97.038002,607,"United States",0.481034463430793,"DAL"
"USA","CAK","Akron Canton Regional Airport","US","medium_airport",40.9160995483398,-81.4421997070312,1228,"United States",0.481034463430793,"CLE"
"USA","SYR","Syracuse Hancock International Airport","US","large_airport",43.111198425293,-76.1063003540039,421,"United States",0.481034463430793,"ROC"
"USA","DTW","Detroit Metropolitan Wayne County Airport","US","large_airport",42.21377,-83.353786,645,"United States",0.481034463430793,"LAN"
"USA","TMB","Miami Executive Airport","US","medium_airport",25.6479,-80.4328,8,"United States",0.481034463430793,"MIA"
"USA","TPA","Tampa International Airport","US","large_airport",27.9755,-82.533203,26,"United States",0.481034463430793,"LAL"
"USA","SLC","Salt Lake City International Airport","US","large_airport",40.78886,-111.979866,4227,"United States",0.481034463430793,"LAS"
"USA","TTN","Trenton Mercer Airport","US","medium_airport",40.276699,-74.813499,213,"United States",0.481034463430793,"PHL"
"USA","FWA","Fort Wayne International Airport","US","medium_airport",40.9785,-85.195099,814,"United States",0.481034463430793,"SBN"
"USA","TVC","Cherry Capital Airport","US","medium_airport",44.7414016723633,-85.5821990966797,624,"United States",0.481034463430793,"GRB"
"USA","DCA","Ronald Reagan Washington National Airport","US","large_airport",38.8521,-77.037697,15,"United States",0.481034463430793,"IAD"
"USA","DEC","Decatur Airport","US","medium_airport",39.8345985412598,-88.8656997680664,682,"United States",0.481034463430793,"SPI"
"USA","DEN","Denver International Airport","US","large_airport",39.861698150635,-104.672996521,5431,"United States",0.481034463430793,"SLN"
"USA","ATL","Hartsfield Jackson Atlanta International Airport","US","large_airport",33.6367,-84.428101,1026,"United States",0.481034463430793,"FTY"
"USA","MLI","Quad City International Airport","US","medium_airport",41.448502,-90.5075,590,"United States",0.481034463430793,"DBQ"
"USA","HPN","Westchester County Airport","US","medium_airport",41.0670013427734,-73.7076034545898,439,"United States",0.481034463430793,"LGA"
"USA","KOA","Ellison Onizuka Kona International Airport at Keahole","US","medium_airport",19.738783,-156.045603,47,"United States",0.481034463430793,"ITO"
"USA","TLH","Tallahassee Regional Airport","US","medium_airport",30.3965,-84.350304,81,"United States",0.481034463430793,"ABY"
"USA","FLL","Fort Lauderdale Hollywood International Airport","US","large_airport",26.072599,-80.152702,9,"United States",0.481034463430793,"FXE"
"USA","FPR","St Lucie County International Airport","US","medium_airport",27.49510002,-80.36830139,24,"United States",0.481034463430793,"SUA"
"USA","BED","Laurence G Hanscom Field","US","medium_airport",42.470001,-71.289001,133,"United States",0.481034463430793,"BOS"
"USA","ITO","Hilo International Airport","US","medium_airport",19.721399,-155.048004,38,"United States",0.481034463430793,"KOA"
"USA","ISP","Long Island Mac Arthur Airport","US","medium_airport",40.79520035,-73.10019684,99,"United States",0.481034463430793,"HPN"
"USA","TYS","McGhee Tyson Airport","US","medium_airport",35.811001,-83.994003,981,"United States",0.481034463430793,"AVL"
"USA","XNA","Northwest Arkansas National Airport","US","medium_airport",36.281898,-94.306801,1287,"United States",0.481034463430793,"TUL"
"USA","BHB","Hancock County-Bar Harbor Airport","US","medium_airport",44.45000076,-68.3615036,83,"United States",0.481034463430793,"AUG"
"USA","BNA","Nashville International Airport","US","large_airport",36.1245,-86.6782,599,"United States",0.481034463430793,"SDF"
"USA","LAS","Harry Reid International Airport","US","large_airport",36.083361,-115.151817,2181,"United States",0.481034463430793,"ONT"
"USA","LAX","Los Angeles International Airport","US","large_airport",33.942501,-118.407997,125,"United States",0.481034463430793,"LGB"
"USA","CHS","Charleston International Airport","US","medium_airport",32.898602,-80.040497,46,"United States",0.481034463430793,"CLT"
"USA","CID","The Eastern Iowa Airport","US","medium_airport",41.884701,-91.7108,869,"United States",0.481034463430793,"DBQ"
"USA","CLE","Cleveland Hopkins International Airport","US","large_airport",41.411701,-81.8498,791,"United States",0.481034463430793,"CAK"
"USA","CLT","Charlotte Douglas International Airport","US","large_airport",35.2140007019043,-80.9430999755859,748,"United States",0.481034463430793,"HKY"
"USA","CMH","John Glenn Columbus International Airport","US","large_airport",39.998001,-82.891899,815,"United States",0.481034463430793,"CAK"
"USA","SJC","Norman Y. Mineta San Jose International Airport","US","large_airport",37.362452,-121.929188,62,"United States",0.481034463430793,"OAK"
"USA","MCI","Kansas City International Airport","US","large_airport",39.2976,-94.713898,1026,"United States",0.481034463430793,"OMA"
"USA","MCO","Orlando International Airport","US","large_airport",28.4293994903564,-81.3089981079102,96,"United States",0.481034463430793,"SFB"
"USA","MDT","Harrisburg International Airport","US","medium_airport",40.193501,-76.763397,310,"United States",0.481034463430793,"BWI"
"USA","MDW","Chicago Midway International Airport","US","large_airport",41.785999,-87.752403,620,"United States",0.481034463430793,"ORD"
"USA","MEM","Memphis International Airport","US","large_airport",35.0424,-89.9767,341,"United States",0.481034463430793,"LIT"
"USA","MIA","Miami International Airport","US","large_airport",25.7931995391846,-80.2906036376953,8,"United States",0.481034463430793,"OPF"
"USA","MKE","General Mitchell International Airport","US","large_airport",42.947201,-87.896599,723,"United States",0.481034463430793,"ORD"
"USA","DSM","Des Moines International Airport","US","medium_airport",41.534,-93.663101,958,"United States",0.481034463430793,"CID"
"USA","MSP","Minneapolis–Saint Paul International Airport / Wold–Chamberlain Field","US","large_airport",44.880081,-93.221741,841,"United States",0.481034463430793,"STP"
"USA","EWR","Newark Liberty International Airport","US","large_airport",40.692501,-74.168701,18,"United States",0.481034463430793,"TEB"
"USA","EYW","Key West International Airport","US","medium_airport",24.556101,-81.759598,3,"United States",0.481034463430793,"MTH"
"USA","MTH","The Florida Keys Marathon Airport","US","medium_airport",24.726101,-81.051399,5,"United States",0.481034463430793,"EYW"
"USA","FTY","Fulton County Airport Brown Field","US","medium_airport",33.7790985107,-84.5214004517,841,"United States",0.481034463430793,"ATL"
"USA","OAK","San Francisco Bay Oakland International Airport","US","large_airport",37.720085,-122.221184,9,"United States",0.481034463430793,"SFO"
"USA","FXE","Fort Lauderdale Executive Airport","US","medium_airport",26.1972999573,-80.1707000732,13,"United States",0.481034463430793,"FLL"
"USA","GRB","Austin Straubel International Airport","US","medium_airport",44.483459,-88.130805,695,"United States",0.481034463430793,"ATW"
"USA","GRR","Gerald R. Ford International Airport","US","medium_airport",42.88079834,-85.52279663,794,"United States",0.481034463430793,"LAN"
"USA","FAI","Fairbanks International Airport","US","medium_airport",64.815102,-147.856003,439,"United States",0.481034463430793,"ANC"
"USA","ANC","Ted Stevens Anchorage International Airport","US","large_airport",61.179004,-149.992561,152,"United States",0.481034463430793,"FAI"
"USA","ATW","Appleton International Airport","US","medium_airport",44.258099,-88.519096,918,"United States",0.481034463430793,"GRB"
"USA","PHX","Phoenix Sky Harbor International Airport","US","large_airport",33.435302,-112.005905,1135,"United States",0.481034463430793,"LAS"
"USA","HYA","Cape Cod Gateway Airport","US","medium_airport",41.6693,-70.280403,54,"United States",0.481034463430793,"MVY"
"USA","AVL","Asheville Regional Airport","US","medium_airport",35.436199,-82.541801,2165,"United States",0.481034463430793,"HKY"
"USA","BCT","Boca Raton Airport","US","medium_airport",26.3785,-80.107697,13,"United States",0.481034463430793,"FXE"
"USA","BDL","Bradley International Airport","US","large_airport",41.93851,-72.688066,173,"United States",0.481034463430793,"PVD"
"USA","OGG","Kahului International Airport","US","large_airport",20.896263,-156.431837,54,"United States",0.481034463430793,"JHM"
"USA","INT","Smith Reynolds Airport","US","medium_airport",36.1337013244629,-80.2220001220703,969,"United States",0.481034463430793,"HKY"
"USA","RDU","Raleigh Durham International Airport","US","large_airport",35.877602,-78.787498,435,"United States",0.481034463430793,"INT"
"USA","JAX","Jacksonville International Airport","US","large_airport",30.492469,-81.687813,30,"United States",0.481034463430793,"SFB"
"USA","JFK","John F Kennedy International Airport","US","large_airport",40.639447,-73.779317,13,"United States",0.481034463430793,"LGA"
"USA","LAL","Lakeland Linder International Airport","US","medium_airport",27.987656,-82.018776,142,"United States",0.481034463430793,"TPA"
"USA","LAN","Capital City Airport","US","medium_airport",42.7787017822266,-84.58740234375,861,"United States",0.481034463430793,"GRR"
"USA","RUT","Rutland - Southern Vermont Regional Airport","US","medium_airport",43.5294,-72.9496,787,"United States",0.481034463430793,"SLK"
"USA","SAN","San Diego International Airport","US","large_airport",32.7336006165,-117.190002441,17,"United States",0.481034463430793,"SNA"
"USA","SBN","South Bend Regional Airport","US","medium_airport",41.708698,-86.317299,799,"United States",0.481034463430793,"MDW"
"USA","SDF","Louisville Muhammad Ali International Airport","US","large_airport",38.1744,-85.736,501,"United States",0.481034463430793,"LEX"
"USA","SEA","Seattle–Tacoma International Airport","US","large_airport",47.447943,-122.310276,433,"United States",0.481034463430793,"YVR"
"USA","SFB","Orlando Sanford International Airport","US","large_airport",28.7775993347168,-81.2375030517578,55,"United States",0.481034463430793,"MCO"
"USA","SFO","San Francisco International Airport","US","large_airport",37.619806,-122.374821,13,"United States",0.481034463430793,"OAK"
"USA","LNK","Lincoln Airport","US","medium_airport",40.851001739502,-96.7592010498047,1219,"United States",0.481034463430793,"OMA"
"USA","MVY","Martha's Vineyard Airport","US","small_airport",41.3931007385,-70.6143035889,67,"United States",0.481034463430793,"HYA"
"USA","PWM","Portland International Jetport","US","large_airport",43.646198,-70.309303,76,"United States",0.481034463430793,"AUG"
"USA","OKC","Will Rogers World Airport","US","large_airport",35.393388,-97.598248,1295,"United States",0.481034463430793,"TUL"
"USA","OMA","Eppley Airfield","US","large_airport",41.3032,-95.894096,984,"United States",0.481034463430793,"LNK"
"USA","ONT","Ontario International Airport","US","large_airport",34.056,-117.600998,944,"United States",0.481034463430793,"SNA"
"USA","HKY","Hickory Regional Airport","US","medium_airport",35.74110031,-81.38950348,1190,"United States",0.481034463430793,"CLT"
"USA","ACK","Nantucket Memorial Airport","US","medium_airport",41.25310135,-70.06020355,47,"United States",0.481034463430793,"MVY"
"USA","HOU","William P Hobby Airport","US","medium_airport",29.645399,-95.2789,46,"United States",0.481034463430793,"IAH"
"USA","MSN","Dane County Regional Truax Field","US","medium_airport",43.1399,-89.337502,887,"United States",0.481034463430793,"RFD"
"USA","LIH","Lihue Airport","US","medium_airport",21.976,-159.339005,153,"United States",0.481034463430793,"MKK"
"USA","MSY","Louis Armstrong New Orleans International Airport","US","large_airport",29.993401,-90.258003,4,"United States",0.481034463430793,"PNS"
"USA","LNY","Lanai Airport","US","medium_airport",20.785675,-156.951324,1308,"United States",0.481034463430793,"JHM"
"USA","ICT","Wichita Eisenhower National Airport","US","medium_airport",37.649899,-97.433098,1333,"United States",0.481034463430793,"SLN"
"USA","IND","Indianapolis International Airport","US","large_airport",39.7173,-86.294403,797,"United States",0.481034463430793,"CVG"
"USA","PIT","Pittsburgh International Airport","US","large_airport",40.491501,-80.232903,1203,"United States",0.481034463430793,"CAK"
"USA","PNS","Pensacola International Airport","US","medium_airport",30.4734,-87.1866,121,"United States",0.481034463430793,"TLH"
"USA","ROC","Frederick Douglass Greater Rochester International Airport","US","medium_airport",43.1189,-77.672401,559,"United States",0.481034463430793,"BUF"
"USA","RST","Rochester International Airport","US","medium_airport",43.908298,-92.5,1317,"United States",0.481034463430793,"MSP"
"USA","RSW","Southwest Florida International Airport","US","large_airport",26.5361995697021,-81.7552032470703,30,"United States",0.481034463430793,"FXE"
"USA","OPF","Miami-Opa Locka Executive Airport","US","medium_airport",25.907,-80.278397,8,"United States",0.481034463430793,"MIA"
"USA","ORD","Chicago O'Hare International Airport","US","large_airport",41.9786,-87.9048,680,"United States",0.481034463430793,"MDW"
"USA","PHL","Philadelphia International Airport","US","large_airport",39.871899,-75.241096,36,"United States",0.481034463430793,"TTN"
"USA","LEX","Blue Grass Airport","US","medium_airport",38.036499,-84.605904,979,"United States",0.481034463430793,"SDF"
"USA","MKK","Molokai Airport","US","medium_airport",21.152901,-157.095993,454,"United States",0.481034463430793,"LNY"
"USA","LGB","Long Beach Airport (Daugherty Field)","US","medium_airport",33.816523,-118.149891,60,"United States",0.481034463430793,"LAX"
"USA","LIT","Bill & Hillary Clinton National Airport/Adams Field","US","medium_airport",34.729582,-92.223728,262,"United States",0.481034463430793,"MEM"
"USA","PVD","Theodore Francis Green State Airport","US","large_airport",41.725038,-71.425668,55,"United States",0.481034463430793,"MVY"
"USA","RFD","Chicago Rockford International Airport","US","medium_airport",42.1954,-89.097198,742,"United States",0.481034463430793,"ORD"
"USA","LGA","LaGuardia Airport","US","large_airport",40.777199,-73.872597,21,"United States",0.481034463430793,"JFK"
"USA","IAD","Washington Dulles International Airport","US","large_airport",38.9445,-77.455803,312,"United States",0.481034463430793,"DCA"
"USA","RIC","Richmond International Airport","US","large_airport",37.505199,-77.319702,167,"United States",0.481034463430793,"DCA"
"USA","PDX","Portland International Airport","US","large_airport",45.588699,-122.598,31,"United States",0.481034463430793,"SEA"
"USA","IAH","George Bush Intercontinental Houston Airport","US","large_airport",29.9843997955322,-95.3414001464844,97,"United States",0.481034463430793,"HOU"
"USA","PIA","General Wayne A. Downing Peoria International Airport","US","medium_airport",40.6642,-89.693298,660,"United States",0.481034463430793,"SPI"
"UZB","BHK","Bukhara International Airport","UZ","medium_airport",39.775002,64.483299,751,"Uzbekistan",0.318519038955527,"NVI"
"UZB","UGC","Urgench Airport","UZ","medium_airport",41.584300994873,60.6417007446289,320,"Uzbekistan",0.318519038955527,"NCU"
"UZB","TAS","Tashkent International Airport","UZ","large_airport",41.257900238,69.2811965942,1417,"Uzbekistan",0.318519038955527,"LBD"
"UZB","SKD","Samarkand Airport","UZ","medium_airport",39.7005004882812,66.9838027954102,2224,"Uzbekistan",0.318519038955527,"KSQ"
"UZB","TMJ","Termez Airport","UZ","medium_airport",37.287261,67.311869,1027,"Uzbekistan",0.318519038955527,"DYU"
"UZB","FEG","Fergana International Airport","UZ","medium_airport",40.358799,71.745003,1980,"Uzbekistan",0.318519038955527,"NMA"
"UZB","NVI","Navoi Airport","UZ","medium_airport",40.117199,65.170799,1140,"Uzbekistan",0.318519038955527,"BHK"
"UZB","KSQ","Karshi Airport","UZ","small_airport",38.802246,65.773068,1230,"Uzbekistan",0.318519038955527,"SKD"
"UZB","NCU","Nukus Airport","UZ","medium_airport",42.4884,59.623299,246,"Uzbekistan",0.318519038955527,"UGC"
"UZB","NMA","Namangan Airport","UZ","small_airport",40.9846,71.556702,1555,"Uzbekistan",0.318519038955527,"FEG"
"VGB","EIS","Terrance B. Lettsome International Airport","VG","medium_airport",18.445492,-64.541707,15,"British Virgin Islands",0.434583075941399,"SKB"
"VGB","VIJ","Virgin Gorda Airport","VG","small_airport",18.446634,-64.427932,9,"British Virgin Islands",0.434583075941399,"SKB"
"VIR","SPB","Charlotte Amalie Harbor Seaplane Base","VI","seaplane_base",18.338204,-64.939675,851.16211745244,"U.S. Virgin Islands",0.434583075941399,"SKB"
"VIR","SSB","Christiansted Harbor Seaplane Base","VI","seaplane_base",17.7472,-64.704903,851.16211745244,"U.S. Virgin Islands",0.434583075941399,"SKB"
"VIR","STX","Henry E Rohlsen Airport","VI","medium_airport",17.701413,-64.802608,74,"U.S. Virgin Islands",0.434583075941399,"SKB"
"VIR","STT","Cyril E. King Airport","VI","medium_airport",18.337091,-64.977251,23,"U.S. Virgin Islands",0.434583075941399,"SKB"
"VNM","HAN","Noi Bai International Airport","VN","large_airport",21.221201,105.806999,39,"Vietnam",0.490791446680879,"NNG"
"VNM","CXR","Cam Ranh International Airport / Cam Ranh Air Base","VN","medium_airport",11.9982,109.219002,40,"Vietnam",0.490791446680879,"SGN"
"VNM","DAD","Da Nang International Airport","VN","medium_airport",16.0439,108.198997,33,"Vietnam",0.490791446680879,"SYX"
"VNM","PQC","Phu Quoc International Airport","VN","medium_airport",10.1698,103.9931,37,"Vietnam",0.490791446680879,"PNH"
"VNM","SGN","Tan Son Nhat International Airport","VN","large_airport",10.8188,106.652,33,"Vietnam",0.490791446680879,"PNH"
"VUT","TAH","Tanna Airport","VU","medium_airport",-19.455099105835,169.223999023438,19,"Vanuatu",0.486688943340768,"VLI"
"VUT","VLI","Bauerfield International Airport","VU","large_airport",-17.699301,168.320007,70,"Vanuatu",0.486688943340768,"LPM"
"VUT","WLH","Walaha Airport","VU","small_airport",-15.412,167.690994,151,"Vanuatu",0.486688943340768,"SON"
"VUT","LPM","Lamap Airport","VU","small_airport",-16.4611228,167.829253,7,"Vanuatu",0.486688943340768,"NUS"
"VUT","NUS","Norsup Airport","VU","small_airport",-16.0797,167.401001,23,"Vanuatu",0.486688943340768,"LPM"
"VUT","SON","Santo Pekoa International Airport","VU","medium_airport",-15.5050001144,167.220001221,184,"Vanuatu",0.486688943340768,"WLH"
"ZAF","MQP","Kruger Mpumalanga International Airport","ZA","medium_airport",-25.3831996918,31.1056003571,2829,"South Africa",0.430575886474266,"HDS"
"ZAF","HLA","Lanseria International Airport","ZA","medium_airport",-25.938499,27.9261,4517,"South Africa",0.430575886474266,"JNB"
"ZAF","HDS","Hoedspruit Air Force Base Airport","ZA","small_airport",-24.3686008453,31.0487003326,1743,"South Africa",0.430575886474266,"MQP"
"ZAF","ELS","King Phalo Airport","ZA","medium_airport",-33.035599,27.825899,435,"South Africa",0.430575886474266,"UTT"
"ZAF","BFN","Bram Fischer International Airport","ZA","medium_airport",-29.092699,26.302401,4457,"South Africa",0.430575886474266,"MSU"
"ZAF","GRJ","George Airport","ZA","medium_airport",-34.0056,22.378902,648,"South Africa",0.430575886474266,"PLZ"
"ZAF","DUR","King Shaka International Airport","ZA","large_airport",-29.6144444444,31.1197222222,295,"South Africa",0.430575886474266,"PZB"
"ZAF","UTT","K. D. Matanzima Airport","ZA","medium_airport",-31.5463631849,28.6733551025,2400,"South Africa",0.430575886474266,"ELS"
"ZAF","JNB","O.R. Tambo International Airport","ZA","large_airport",-26.1392,28.246,5558,"South Africa",0.430575886474266,"HLA"
"ZAF","PLZ","Chief Dawid Stuurman International Airport","ZA","medium_airport",-33.984901,25.6173,226,"South Africa",0.430575886474266,"ELS"
"ZAF","PZB","Pietermaritzburg Airport","ZA","medium_airport",-29.6490001678,30.3987007141,2423,"South Africa",0.430575886474266,"DUR"
"ZAF","CPT","Cape Town International Airport","ZA","large_airport",-33.9648017883,18.6016998291,151,"South Africa",0.430575886474266,"GRJ"
"ZAF","PTG","Polokwane International Airport","ZA","medium_airport",-23.845269,29.458615,4076,"South Africa",0.430575886474266,"HDS"
"ZMB","MFU","Mfuwe Airport","ZM","medium_airport",-13.2588996887207,31.9365997314453,1853,"Zambia",0.549443540423385,"TET"
"ZMB","LUN","Kenneth Kaunda International Airport","ZM","large_airport",-15.330833,28.452722,3779,"Zambia",0.549443540423385,"NLA"
"ZMB","LVI","Harry Mwanga Nkumbula International Airport","ZM","medium_airport",-17.8218,25.822701,3302,"Zambia",0.549443540423385,"LUN"
"ZMB","NLA","Simon Mwansa Kapwepwe International Airport","ZM","medium_airport",-12.961667,28.516667,4308,"Zambia",0.549443540423385,"FBM"
"ZWE","HRE","Robert Gabriel Mugabe International Airport","ZW","large_airport",-17.931801,31.0928,4887,"Zimbabwe",0.516912092759957,"TET"
